"name";"phone";"address";"city";"state"
"Demetria House";"(398) 656-1119";"9766 Tincidunt Street";"Bellevue";"WA"
"Aaron Randolph";"(763) 567-0371";"Ap #933-3590 Id Avenue";"Kapolei";"HI"
"Melanie Schroeder";"(670) 807-1390";"8689 Nisi. St.";"Fort Collins";"CO"
"Talon Dudley";"(708) 313-0491";"Ap #197-2841 Eget Street";"Boise";"ID"
"Kellie Howard";"(639) 159-1891";"3405 Ac Street";"Bridgeport";"CT"
"Marah Caldwell";"(719) 482-7947";"P.O. Box 721, 2667 Sed Rd.";"Jacksonville";"FL"
"Tatyana Evans";"(862) 693-1531";"P.O. Box 703, 6760 Magna Rd.";"Boston";"MA"
"Damian Holder";"(371) 878-9864";"999-9716 Orci Rd.";"Birmingham";"AL"
"Griffin Pitts";"(735) 991-5892";"Ap #890-209 Neque St.";"Phoenix";"AZ"
"Ina Macdonald";"(181) 924-7935";"570-193 Et Av.";"Sacramento";"CA"
"Ryan Burch";"(664) 629-8262";"Ap #706-4588 Sapien. Ave";"Gaithersburg";"MD"
"Brett Lewis";"(921) 776-9898";"5485 Faucibus Street";"Warren";"MI"
"Zeus Berg";"(179) 417-8474";"6889 Vitae Av.";"Springdale";"AR"
"Sonia Rasmussen";"(901) 750-4963";"875-1035 Sagittis Av.";"Madison";"WI"
"Oleg Whitley";"(122) 991-8845";"3105 Faucibus Street";"Cleveland";"OH"
"Lance Noble";"(147) 288-7633";"711-8997 Massa Av.";"Cincinnati";"OH"
"Heidi Kirk";"(896) 760-5029";"2175 Est Ave";"Flint";"MI"
"Kirestin Williamson";"(683) 546-3428";"Ap #770-1997 Libero. Street";"West Valley City";"UT"
"Gavin Harmon";"(258) 132-3585";"360-1186 Nascetur Street";"Sacramento";"CA"
"Kirby Mcintyre";"(922) 761-3261";"P.O. Box 921, 317 Per Street";"Tacoma";"WA"
"Randall Lane";"(637) 767-2673";"Ap #340-2315 Sit Road";"Shreveport";"LA"
"Brittany Gray";"(408) 800-6222";"6986 Aliquam Road";"Lincoln";"NE"
"Rhoda Merritt";"(326) 976-9324";"Ap #266-9892 Arcu Av.";"Kansas City";"MO"
"Amela Pierce";"(897) 458-8720";"Ap #960-7820 Nunc Rd.";"Newport News";"VA"
"Benedict Marquez";"(738) 486-7525";"Ap #994-2933 Porta Ave";"Colorado Springs";"CO"
"Boris Donaldson";"(901) 147-1959";"Ap #433-7042 Vestibulum St.";"Phoenix";"AZ"
"Joseph Hammond";"(851) 350-4363";"215-5963 Aenean St.";"Aurora";"CO"
"Ariana Johnson";"(393) 868-1266";"P.O. Box 490, 869 Neque. St.";"South Bend";"IN"
"Blaine Rocha";"(738) 393-9038";"P.O. Box 273, 6243 Sociosqu St.";"North Las Vegas";"NV"
"Beau Lara";"(291) 155-8769";"Ap #252-2508 Auctor Ave";"Little Rock";"AR"
"Owen Buchanan";"(994) 830-9554";"Ap #847-4034 Arcu Road";"College";"AK"
"Jin Schroeder";"(172) 133-8162";"P.O. Box 798, 9124 Lorem Ave";"Tampa";"FL"
"Xena Russo";"(527) 849-5212";"P.O. Box 504, 3722 Eu Ave";"Gulfport";"MS"
"Donovan Love";"(303) 609-8939";"Ap #623-7738 Nisi Road";"Milwaukee";"WI"
"Tamekah Peck";"(636) 489-2460";"2174 Enim Road";"Aurora";"IL"
"Candace Watkins";"(615) 881-0002";"P.O. Box 135, 5537 Sed, Road";"Rockville";"MD"
"Kelsey Garza";"(449) 673-9638";"Ap #294-1522 Diam. Ave";"Biloxi";"MS"
"Pandora Knox";"(797) 135-0373";"Ap #254-6233 Morbi Rd.";"Springdale";"AR"
"Oleg Justice";"(739) 179-4490";"Ap #802-2050 Donec Avenue";"Phoenix";"AZ"
"Leilani Floyd";"(188) 958-2530";"Ap #795-734 Iaculis, Rd.";"Sterling Heights";"MI"
"Alea Oneil";"(980) 786-5527";"893-9059 Nulla Rd.";"Green Bay";"WI"
"Meghan Peterson";"(687) 801-4213";"4935 Sit St.";"Laramie";"WY"
"Irene Vincent";"(599) 731-3155";"871-8453 Facilisis. Rd.";"Spokane";"WA"
"Vaughan Grant";"(296) 268-3637";"P.O. Box 514, 2137 Sapien, Avenue";"Green Bay";"WI"
"Patricia Sosa";"(737) 742-3927";"357-3866 Orci, Street";"Helena";"MT"
"Yuri Valencia";"(624) 227-7227";"7706 Ante, Road";"Tacoma";"WA"
"Samuel Thornton";"(433) 472-1536";"494-6781 Tortor, St.";"Chattanooga";"TN"
"Chiquita Mckee";"(248) 456-7796";"8551 Eros St.";"Reading";"PA"
"Porter Rowe";"(617) 978-0523";"P.O. Box 624, 8673 Arcu. Avenue";"Houston";"TX"
"Neve Rodgers";"(882) 519-9161";"Ap #762-3233 Orci Rd.";"Olathe";"KS"
"Keegan Gates";"(718) 855-7753";"4216 Eros Street";"Columbus";"OH"
"Rahim Rocha";"(261) 856-7150";"Ap #575-5267 Purus, Street";"Essex";"VT"
"Myra Irwin";"(843) 469-5914";"2193 Velit Rd.";"Montpelier";"VT"
"MacKensie Johns";"(372) 466-3286";"448-5479 Penatibus Rd.";"Atlanta";"GA"
"Uriel Preston";"(732) 648-1281";"Ap #469-4197 Nullam Avenue";"Rochester";"MN"
"Deborah Cline";"(614) 773-6061";"Ap #393-7330 At, Ave";"Dallas";"TX"
"Lucius Workman";"(860) 293-5352";"Ap #133-5313 Enim. Street";"Carson City";"NV"
"Elvis Hodge";"(479) 150-1744";"360-4489 Sem. St.";"Helena";"MT"
"Ima Guzman";"(619) 319-4821";"7671 Neque Ave";"Rock Springs";"WY"
"Dustin Guerra";"(447) 865-2159";"967-2664 Nisi. St.";"Houston";"TX"
"Brody Jennings";"(989) 592-8612";"P.O. Box 370, 6596 Erat. St.";"Cheyenne";"WY"
"Madaline Oneil";"(350) 396-1478";"P.O. Box 460, 4035 Congue Av.";"Olathe";"KS"
"Cody James";"(449) 855-7111";"3114 Et Ave";"Reading";"PA"
"Theodore Guthrie";"(783) 538-8300";"P.O. Box 733, 3478 Sollicitudin Road";"Kaneohe";"HI"
"Dexter Collier";"(613) 337-6261";"8723 Ullamcorper, St.";"Broken Arrow";"OK"
"Denton Jarvis";"(827) 874-0607";"6457 Laoreet Road";"Springfield";"IL"
"Sharon Hancock";"(376) 626-4353";"797-1051 Pharetra, Road";"Colorado Springs";"CO"
"Driscoll Bean";"(201) 437-2901";"833-2838 Erat Rd.";"Tampa";"FL"
"Kelsey Russell";"(167) 634-2380";"8079 Maecenas Ave";"Sterling Heights";"MI"
"Henry Nielsen";"(760) 303-9636";"P.O. Box 629, 5984 Ipsum St.";"Nashville";"TN"
"Danielle Wilkinson";"(724) 627-9529";"Ap #331-2410 In, Street";"Fresno";"CA"
"Emma Brennan";"(420) 393-1541";"2708 Lobortis. Ave";"Gary";"IN"
"Halee Benson";"(870) 769-0893";"P.O. Box 696, 1997 Nec, Rd.";"Lowell";"MA"
"Giselle Winters";"(213) 804-2122";"P.O. Box 874, 1369 Sit Avenue";"Columbia";"MD"
"Laith Nash";"(579) 781-1815";"239-2788 Sit Road";"Cambridge";"MA"
"Colin Koch";"(948) 259-0854";"1604 In Rd.";"Boston";"MA"
"Fleur Colon";"(676) 428-3257";"Ap #153-5999 Urna Rd.";"Waterbury";"CT"
"Igor Cook";"(561) 706-8151";"P.O. Box 191, 6627 Tempor, Avenue";"Kansas City";"MO"
"Hasad Kirk";"(647) 349-6695";"224-6659 Sem Ave";"Georgia";"GA"
"Katell Rodriguez";"(258) 659-7824";"Ap #589-1520 At, Rd.";"Newark";"DE"
"Morgan Powell";"(247) 516-4174";"962-9976 Lacus. Avenue";"Anchorage";"AK"
"Knox Hutchinson";"(741) 330-8721";"893-6558 Purus Rd.";"Grand Island";"NE"
"Nathan Morrison";"(126) 153-5367";"Ap #439-8907 Nulla. Rd.";"Toledo";"OH"
"Thaddeus Leblanc";"(757) 176-8755";"Ap #510-9992 Tempor, Ave";"Oklahoma City";"OK"
"Jasper Gonzales";"(122) 735-9319";"674-4953 Varius Av.";"Tuscaloosa";"AL"
"Malachi Flynn";"(537) 467-6242";"421-8605 Aliquam Road";"Sterling Heights";"MI"
"Gil Hess";"(655) 918-1736";"Ap #443-5316 Ullamcorper Rd.";"Wilmington";"DE"
"Evelyn Cortez";"(863) 930-4636";"Ap #875-9585 Malesuada Rd.";"Denver";"CO"
"Quinlan Wilkerson";"(741) 301-6458";"P.O. Box 377, 4098 Sed, Street";"Auburn";"ME"
"Ria Fisher";"(105) 633-8960";"5373 Urna. Ave";"Chicago";"IL"
"Nell Rivera";"(937) 274-6137";"526-2693 Pretium Ave";"Jefferson City";"MO"
"Ferris Raymond";"(280) 836-0415";"Ap #218-2443 Natoque St.";"Chandler";"AZ"
"Guy Duffy";"(981) 549-0659";"8254 Tincidunt Rd.";"Richmond";"VA"
"Damon Huffman";"(203) 974-5584";"P.O. Box 321, 3948 Tempor Av.";"Savannah";"GA"
"Xavier Henry";"(133) 962-9734";"4949 Ipsum. Street";"Frankfort";"KY"
"Blair Hunt";"(200) 527-7200";"223-3865 At, Rd.";"Biloxi";"MS"
"Blair Bean";"(569) 531-2938";"817-5910 Tristique Av.";"Mobile";"AL"
"Justina Hurley";"(885) 394-9840";"340-6731 Vitae, Street";"Chicago";"IL"
"Dora Duke";"(232) 353-7984";"610-4370 Auctor, Rd.";"Orlando";"FL"
"Lee Guy";"(417) 269-4691";"Ap #174-6354 Nostra, Rd.";"Chesapeake";"VA"
"Shana Fowler";"(808) 983-1971";"577-2892 Metus. Rd.";"Cedar Rapids";"IA"
"Carlos Pace";"(801) 414-8686";"Ap #123-4322 Faucibus St.";"Provo";"UT"
"Deirdre Wilson";"(553) 386-3551";"6982 Augue Rd.";"Aurora";"CO"
"Demetrius Thompson";"(814) 858-6267";"P.O. Box 654, 5359 Lectus, St.";"Warren";"MI"
"Marah Wooten";"(850) 837-8087";"7329 Morbi Rd.";"Anchorage";"AK"
"Savannah White";"(325) 932-8575";"P.O. Box 415, 2379 Venenatis Ave";"Clarksville";"TN"
"Tad Burt";"(474) 806-8224";"P.O. Box 539, 4428 Velit St.";"Ketchikan";"AK"
"Alea Bryant";"(463) 682-0668";"708 Enim Rd.";"Memphis";"TN"
"Lars Wooten";"(175) 347-4001";"554-211 Montes, St.";"Henderson";"NV"
"Xander Elliott";"(791) 967-5843";"752-5995 Id Street";"Sioux City";"IA"
"Brandon Mosley";"(364) 959-9679";"628-1239 Vitae Av.";"Broken Arrow";"OK"
"Sonia Lindsey";"(178) 262-5594";"919-6769 Ante. Av.";"Cincinnati";"OH"
"August Battle";"(175) 275-4628";"Ap #842-1975 Dolor Street";"San Antonio";"TX"
"Bruno Haynes";"(948) 578-8780";"152 Amet St.";"Vancouver";"WA"
"Carter Rivera";"(390) 837-9741";"5494 Libero Rd.";"Oklahoma City";"OK"
"Rebecca Chan";"(265) 387-4539";"518-976 Dui, Avenue";"Savannah";"GA"
"Mariam Horton";"(211) 610-7391";"396-8785 Vulputate, Street";"Overland Park";"KS"
"Angela Pace";"(266) 309-4311";"Ap #473-6568 Tristique Rd.";"Broken Arrow";"OK"
"Olivia Pate";"(884) 617-3474";"180 At, Rd.";"Essex";"VT"
"Anne Hinton";"(632) 603-0481";"587-9978 Et Avenue";"Springdale";"AR"
"Merrill Hogan";"(981) 538-3669";"Ap #748-7210 Iaculis Street";"Billings";"MT"
"Sonia Snow";"(832) 110-8834";"7959 Gravida. Rd.";"Waterbury";"CT"
"Lewis Weiss";"(927) 589-9302";"749-2907 Non Rd.";"South Burlington";"VT"
"Curran Padilla";"(241) 237-4657";"3695 Massa Rd.";"Augusta";"ME"
"George Levy";"(290) 488-7937";"P.O. Box 341, 5421 Odio Ave";"Lexington";"KY"
"Cyrus Francis";"(442) 812-5624";"P.O. Box 393, 7356 A, Ave";"Provo";"UT"
"Leigh Odonnell";"(682) 616-7928";"278-5454 Rhoncus St.";"Glendale";"AZ"
"Kiona Ross";"(163) 681-0608";"P.O. Box 719, 4369 Sed Avenue";"Jacksonville";"FL"
"Macaulay Rocha";"(606) 495-0844";"8311 Mollis Ave";"Rochester";"MN"
"Isabella Becker";"(988) 221-5245";"Ap #791-1908 Volutpat Avenue";"Billings";"MT"
"Quincy Lloyd";"(167) 548-1726";"P.O. Box 563, 1721 Iaculis, Ave";"Idaho Falls";"ID"
"Axel Maynard";"(808) 344-9930";"P.O. Box 300, 7694 Nisi Ave";"Kansas City";"MO"
"Darryl Moon";"(356) 865-8739";"6050 Donec Avenue";"Gillette";"WY"
"Jesse Chandler";"(721) 457-0686";"Ap #446-7264 Sit Street";"San Jose";"CA"
"Leigh Day";"(433) 229-4679";"7883 Ut Rd.";"Missoula";"MT"
"Alexander Contreras";"(606) 406-6788";"P.O. Box 186, 9312 Eu Ave";"Cambridge";"MA"
"Amber Watts";"(979) 524-5607";"Ap #979-4935 Diam. Rd.";"Montgomery";"AL"
"Kasimir Mooney";"(195) 562-0366";"Ap #633-3826 Neque Rd.";"Fort Collins";"CO"
"Bianca Montgomery";"(370) 427-6330";"P.O. Box 680, 2738 Mauris Avenue";"Pike Creek";"DE"
"Laura Pitts";"(204) 545-9549";"Ap #895-2897 Nostra, Rd.";"Chesapeake";"VA"
"Kalia Davenport";"(825) 984-2902";"P.O. Box 392, 3445 Volutpat Av.";"Hattiesburg";"MS"
"Hop Alford";"(579) 617-8710";"8530 Cursus, Street";"Pike Creek";"DE"
"Aristotle Berry";"(477) 886-6059";"Ap #881-8236 Maecenas Ave";"Juneau";"AK"
"Clare Pruitt";"(834) 530-1772";"P.O. Box 212, 5175 In Road";"College";"AK"
"Keelie Hess";"(321) 456-8694";"4513 Curabitur Ave";"Bellevue";"NE"
"Chaim Velasquez";"(179) 450-8984";"106-7099 Nunc Av.";"Naperville";"IL"
"Wanda Greer";"(478) 547-4846";"P.O. Box 635, 8816 Hendrerit Ave";"Jonesboro";"AR"
"Tamara Huber";"(656) 861-7882";"357-311 Nulla Street";"Shreveport";"LA"
"Noelle Barr";"(148) 847-4053";"6059 Eget St.";"Pocatello";"ID"
"Elliott Soto";"(411) 417-0957";"559-105 Scelerisque Road";"Topeka";"KS"
"Donovan Huffman";"(494) 804-3778";"P.O. Box 103, 5162 Dictum St.";"Saint Paul";"MN"
"Joshua Mullins";"(520) 677-9771";"6853 Lorem Street";"Lansing";"MI"
"Wanda Ryan";"(596) 414-0591";"601-7764 Vitae Av.";"Pocatello";"ID"
"Germaine Nash";"(420) 136-3704";"Ap #641-1525 Sodales Av.";"Tucson";"AZ"
"Austin Kirby";"(563) 242-5598";"934-4296 Accumsan Street";"Shreveport";"LA"
"Noah Mccarty";"(489) 221-8257";"304-9979 Vitae Avenue";"Los Angeles";"CA"
"Kenneth Rush";"(974) 691-6380";"930-9217 Donec Av.";"Lincoln";"NE"
"Erich Walters";"(201) 395-0672";"P.O. Box 986, 119 Ullamcorper, Rd.";"Nashville";"TN"
"Leonard Wallace";"(442) 527-8552";"Ap #159-944 Ante. Av.";"Owensboro";"KY"
"Tarik Jensen";"(643) 464-2452";"P.O. Box 872, 8804 Purus St.";"Frankfort";"KY"
"Sylvester Bullock";"(751) 733-0177";"524-3679 Arcu. Rd.";"Oklahoma City";"OK"
"Veda Burke";"(102) 267-4636";"Ap #415-2778 Donec Avenue";"Reading";"PA"
"Tana Travis";"(258) 846-7620";"9139 Tempus St.";"Cambridge";"MA"
"Medge Camacho";"(399) 257-5867";"8352 Cursus, Rd.";"Gresham";"OR"
"Rowan Clements";"(117) 104-7916";"8803 Vel Avenue";"Bangor";"ME"
"Nehru Bradley";"(621) 100-7959";"P.O. Box 299, 596 A Ave";"College";"AK"
"Dawn Daniel";"(365) 658-4622";"470-3874 Tincidunt Rd.";"Montpelier";"VT"
"Aquila Graham";"(924) 503-5147";"581-9907 Dui. Rd.";"Memphis";"TN"
"Cathleen Day";"(166) 556-6464";"Ap #221-9935 Nonummy St.";"Springfield";"IL"
"Frances Vega";"(215) 296-0907";"5842 Laoreet, Street";"Seattle";"WA"
"Troy Pugh";"(821) 535-1604";"P.O. Box 884, 9620 Pede, Rd.";"South Bend";"IN"
"Kareem Salas";"(179) 767-2955";"P.O. Box 140, 6215 Suspendisse Street";"Gillette";"WY"
"Iris Watkins";"(159) 323-2692";"P.O. Box 807, 8822 Ipsum Rd.";"Cincinnati";"OH"
"Noble Wade";"(436) 869-5625";"408-416 Adipiscing, Av.";"Norfolk";"VA"
"Kimberly Mccormick";"(465) 565-3376";"P.O. Box 906, 7019 Maecenas Street";"Tallahassee";"FL"
"Harrison Walters";"(793) 157-4808";"9994 Ultrices. Rd.";"Tuscaloosa";"AL"
"Gil Marshall";"(972) 216-4344";"1217 Luctus Rd.";"Clarksville";"TN"
"Jeanette Levy";"(145) 287-4336";"Ap #424-7656 Montes, Avenue";"Savannah";"GA"
"Tad Brennan";"(963) 679-3928";"Ap #570-2047 Velit Rd.";"Denver";"CO"
"Clio Harris";"(950) 906-6673";"P.O. Box 294, 9453 Mi Road";"Shreveport";"LA"
"Devin Rodriguez";"(854) 142-9394";"Ap #720-3633 Nunc Street";"Baltimore";"MD"
"Marah Garza";"(664) 149-6150";"Ap #314-4759 Lacus. Rd.";"Tampa";"FL"
"Ingrid Sears";"(808) 393-6066";"Ap #300-7284 Purus. Rd.";"South Bend";"IN"
"Jasper Mcmahon";"(946) 726-9819";"651-1928 Lectus Rd.";"Dallas";"TX"
"Ezekiel Sherman";"(238) 970-7280";"Ap #234-9839 Dui, St.";"Madison";"WI"
"Leslie Williams";"(817) 341-5667";"3463 Egestas Av.";"Des Moines";"IA"
"Forrest Padilla";"(316) 878-3707";"8792 Urna St.";"Bridgeport";"CT"
"Guy Pratt";"(583) 304-9449";"Ap #224-1558 Porttitor Av.";"San Jose";"CA"
"Avram Griffin";"(384) 282-0982";"169-8845 Egestas Road";"Lexington";"KY"
"Gareth Burch";"(978) 537-8791";"953-416 Proin St.";"Mesa";"AZ"
"Miranda Carr";"(186) 528-7746";"4479 Aliquet, Avenue";"Memphis";"TN"
"Porter Mckee";"(625) 553-6721";"125-8156 Blandit Av.";"Pike Creek";"DE"
"Hanna Langley";"(165) 735-2272";"P.O. Box 867, 845 Facilisis St.";"College";"AK"
"Igor Olsen";"(332) 483-3956";"P.O. Box 140, 1212 Interdum St.";"New Haven";"CT"
"Kylynn Mccormick";"(982) 467-9542";"7055 Nec St.";"Saint Louis";"MO"
"Sade Doyle";"(535) 172-8730";"Ap #631-2650 Sapien. Rd.";"Clarksville";"TN"
"Ulric Chang";"(345) 794-0767";"8061 Molestie Rd.";"Kansas City";"MO"
"Joelle Harper";"(989) 619-8798";"6059 Mollis. Rd.";"Metairie";"LA"
"Joy Sheppard";"(854) 222-6440";"P.O. Box 910, 2883 Turpis St.";"Pocatello";"ID"
"Tyler Moreno";"(245) 204-7250";"6395 Dui Avenue";"Kaneohe";"HI"
"Eugenia Villarreal";"(655) 703-3659";"294-5144 Luctus Rd.";"Cheyenne";"WY"
"Harlan Kline";"(374) 858-3803";"274-499 Nunc Avenue";"Overland Park";"KS"
"Peter Douglas";"(775) 250-1186";"6817 Sapien, St.";"San Jose";"CA"
"Howard Hodges";"(654) 547-9457";"193-655 Ultrices St.";"Columbia";"MD"
"Pearl Mcgee";"(422) 422-4190";"948-529 Sit Avenue";"Montgomery";"AL"
"Meredith Atkins";"(981) 898-8269";"215-301 Cras Ave";"Augusta";"GA"
"Victor Jacobson";"(575) 248-0477";"256-6286 Justo Av.";"South Burlington";"VT"
"Delilah Bean";"(387) 512-4765";"253-5091 Lorem. Rd.";"Fayetteville";"AR"
"Wesley Buck";"(259) 233-3683";"Ap #283-8371 Vitae Road";"Bellevue";"WA"
"Callie Dejesus";"(404) 223-9227";"357-1779 Pede, Rd.";"Lowell";"MA"
"Hadley Wright";"(548) 191-1674";"704 Vitae, Road";"Casper";"WY"
"Gretchen Henson";"(914) 536-3006";"690-5680 Id, Road";"Essex";"VT"
"Owen Mays";"(706) 532-2075";"3556 Neque. Av.";"Georgia";"GA"
"Jerry Downs";"(699) 429-1516";"550-8830 Arcu. St.";"Toledo";"OH"
"Chastity Dale";"(623) 541-8092";"399-3999 Lorem. Av.";"Dover";"DE"
"Candice Farrell";"(844) 165-5219";"1615 A Ave";"Houston";"TX"
"William Whitley";"(360) 582-1471";"491-3393 Mollis. Street";"Overland Park";"KS"
"Belle Walsh";"(798) 473-5968";"P.O. Box 253, 3695 Dictum Rd.";"Jonesboro";"AR"
"Hunter Slater";"(669) 387-5766";"Ap #321-9912 Vitae Avenue";"Ketchikan";"AK"
"Wayne England";"(316) 620-0609";"862-6949 Consequat St.";"Las Vegas";"NV"
"Jada Bernard";"(242) 909-7367";"Ap #610-197 Feugiat Street";"Sacramento";"CA"
"Veronica Shaffer";"(323) 478-7511";"Ap #621-2439 Interdum. Rd.";"St. Petersburg";"FL"
"Brianna Shepard";"(175) 137-8451";"720-2422 In, Ave";"Fort Worth";"TX"
"Kirestin Love";"(759) 941-2160";"6491 Faucibus Av.";"Boston";"MA"
"Basia Weiss";"(833) 339-1844";"P.O. Box 850, 2346 Libero St.";"Lexington";"KY"
"Kennan Pittman";"(893) 619-0120";"7731 Eget St.";"Lakewood";"CO"
"Matthew Bradford";"(319) 999-1799";"7278 Quis Avenue";"Flint";"MI"
"Leigh Cameron";"(221) 737-1395";"770-1043 Felis. Ave";"Lincoln";"NE"
"Zahir Duffy";"(609) 587-9848";"3832 Elit. Ave";"Saint Louis";"MO"
"Bethany Emerson";"(909) 907-1320";"P.O. Box 970, 179 Morbi Av.";"Spokane";"WA"
"Perry Hogan";"(565) 619-1870";"5426 Metus. Street";"Lakewood";"CO"
"Clementine Castillo";"(761) 949-3241";"188-8482 Id Avenue";"Bangor";"ME"
"Keelie Reynolds";"(516) 524-7703";"685-8041 Vestibulum, Avenue";"Birmingham";"AL"
"Daphne Ford";"(206) 402-7018";"P.O. Box 290, 5235 Velit Rd.";"South Burlington";"VT"
"Samantha Poole";"(955) 909-9551";"6470 Nisi Street";"Los Angeles";"CA"
"Doris Sharp";"(757) 378-0401";"9013 Ante, Rd.";"Kansas City";"MO"
"Geraldine Waters";"(777) 800-0686";"9248 Fusce St.";"Lowell";"MA"
"Quynn Meyer";"(965) 992-2224";"Ap #572-9968 A Rd.";"Montpelier";"VT"
"Jessamine Mcneil";"(978) 597-8331";"681 Semper Rd.";"Rutland";"VT"
"Malcolm Baxter";"(143) 342-3263";"Ap #581-9755 Cras Ave";"Las Vegas";"NV"
"Tyler Alford";"(401) 375-3025";"Ap #436-4321 Elit, Ave";"Vancouver";"WA"
"Simone Hughes";"(971) 557-2560";"Ap #290-9390 Fermentum St.";"Gary";"IN"
"Charity Mueller";"(121) 517-0850";"9660 Ac Av.";"Tuscaloosa";"AL"
"Iliana Koch";"(701) 505-7113";"779-1666 Enim Rd.";"Norfolk";"VA"
"Guy Barrera";"(171) 719-9725";"502-1431 Et, Street";"Waterbury";"CT"
"Ulric Griffin";"(683) 128-6074";"6743 Rhoncus. Road";"Fayetteville";"AR"
"Alvin Nash";"(226) 657-3446";"6926 Massa. Road";"Richmond";"VA"
"Desiree Hendricks";"(277) 564-7666";"389-5946 Nulla Av.";"Broken Arrow";"OK"
"Wynter Potter";"(660) 196-5423";"2205 Nascetur Street";"Tallahassee";"FL"
"Tucker Crawford";"(258) 181-7721";"P.O. Box 267, 3342 Molestie Av.";"Harrisburg";"PA"
"Alexander Whitfield";"(865) 328-2143";"P.O. Box 761, 990 Vestibulum Avenue";"Jackson";"MS"
"Trevor Melton";"(607) 545-3145";"789-2759 Tristique St.";"Kansas City";"KS"
"Zenia Head";"(723) 578-2369";"Ap #524-9582 Mollis Street";"Harrisburg";"PA"
"Ginger Peterson";"(272) 131-9006";"543-6369 Integer Road";"Chandler";"AZ"
"Derek Melendez";"(586) 880-9127";"Ap #459-8108 Et, St.";"Wilmington";"DE"
"Walker Wynn";"(737) 561-2674";"P.O. Box 502, 5169 Praesent Rd.";"Sioux City";"IA"
"Connor Holland";"(522) 548-5437";"Ap #122-7411 Nibh Road";"Essex";"VT"
"Theodore Lawson";"(603) 308-9291";"397-2572 Eget Av.";"Tacoma";"WA"
"Raymond Collins";"(196) 276-9384";"Ap #422-8561 Nisl Avenue";"Naperville";"IL"
"Price Washington";"(946) 554-9386";"Ap #103-8458 Tempus Avenue";"Montgomery";"AL"
"Phelan Fischer";"(980) 641-1449";"2121 Tempus Rd.";"Grand Island";"NE"
"Louis Cochran";"(177) 874-5581";"567-1521 Porta Street";"Georgia";"GA"
"Jenna Weeks";"(370) 360-2885";"Ap #304-1875 Nullam Rd.";"Olathe";"KS"
"Marah Head";"(297) 892-2439";"P.O. Box 940, 1560 Mi St.";"Knoxville";"TN"
"Dillon Skinner";"(859) 976-3744";"Ap #944-3240 Aptent Ave";"Rockford";"IL"
"Shoshana Burch";"(948) 734-2676";"2049 Neque Rd.";"Rochester";"MN"
"Miriam White";"(476) 285-7040";"P.O. Box 718, 4235 Neque. Avenue";"Kansas City";"MO"
"Emma Hughes";"(871) 560-3876";"5730 In Road";"Meridian";"ID"
"Jack George";"(685) 816-4108";"Ap #925-6825 Donec Road";"Pike Creek";"DE"
"Blaze Chen";"(865) 932-0841";"1619 Magnis Rd.";"Cleveland";"OH"
"Celeste Weaver";"(674) 941-6357";"Ap #100-9622 In Rd.";"Columbia";"MD"
"Hayes Dennis";"(598) 154-0342";"6318 Leo Street";"Bridgeport";"CT"
"Baxter Potter";"(320) 827-8616";"697-4750 Id, Street";"Indianapolis";"IN"
"Hilary Kramer";"(589) 621-1973";"P.O. Box 171, 2662 Risus Rd.";"Tucson";"AZ"
"Lael Coleman";"(788) 905-3075";"P.O. Box 410, 5121 Leo, St.";"Louisville";"KY"
"Whoopi Garrett";"(611) 387-8416";"P.O. Box 828, 7367 Nisi Avenue";"Colorado Springs";"CO"
"MacKenzie Dejesus";"(818) 487-4201";"Ap #629-4148 Nonummy Rd.";"Tucson";"AZ"
"Tanisha Coffey";"(941) 460-0969";"P.O. Box 461, 8927 Nunc Ave";"Hattiesburg";"MS"
"Zena Schneider";"(801) 105-4220";"Ap #887-3920 Neque Rd.";"South Portland";"ME"
"Trevor Foster";"(793) 233-7071";"P.O. Box 362, 9644 Lorem. St.";"Burlington";"VT"
"Miranda Fitzgerald";"(262) 232-6377";"Ap #587-6418 Nunc St.";"Anchorage";"AK"
"Charlotte David";"(652) 648-2379";"428-3054 Lectus Avenue";"Toledo";"OH"
"Nero Steele";"(786) 743-2841";"7932 Mauris Ave";"Reno";"NV"
"Maile Glass";"(208) 868-6937";"418-1850 Eu Avenue";"Bear";"DE"
"Dacey Silva";"(265) 391-9313";"Ap #701-5351 Posuere, Rd.";"Lewiston";"ME"
"Lillith Guerra";"(469) 875-5296";"P.O. Box 792, 3666 Metus Avenue";"Savannah";"GA"
"Lawrence Randolph";"(782) 863-3053";"P.O. Box 289, 3103 Mi, Rd.";"Orlando";"FL"
"Hunter Sloan";"(822) 904-0950";"5883 Lectus Rd.";"Grand Rapids";"MI"
"Macon Bishop";"(222) 852-1534";"Ap #501-2701 In, Road";"Jackson";"MS"
"Grady Duffy";"(533) 650-8535";"P.O. Box 917, 282 Vitae, Ave";"Gaithersburg";"MD"
"Cassandra Sullivan";"(233) 683-6419";"6196 Eget Av.";"Sterling Heights";"MI"
"Xenos Riley";"(549) 773-3362";"144-3519 Eu Street";"Stamford";"CT"
"Inez Wilkinson";"(348) 641-3314";"999-7860 Vivamus Street";"St. Petersburg";"FL"
"Blaze Wise";"(714) 932-4574";"606 Risus Rd.";"Anchorage";"AK"
"Jeremy Booth";"(206) 862-1816";"P.O. Box 680, 5128 Et Street";"Birmingham";"AL"
"Holmes Barnes";"(244) 773-6246";"Ap #297-3495 Nibh. Ave";"Shreveport";"LA"
"Guy Cantrell";"(931) 559-8560";"6917 Porttitor St.";"Reno";"NV"
"Odysseus Stephenson";"(427) 959-4195";"5079 Nulla Av.";"Pittsburgh";"PA"
"Colin Bond";"(361) 790-2108";"P.O. Box 578, 7208 Sodales Street";"Chesapeake";"VA"
"Uta Hobbs";"(758) 872-8177";"3938 Habitant St.";"Fort Wayne";"IN"
"Jasper Puckett";"(430) 508-5879";"Ap #972-2365 Sodales. St.";"Fairbanks";"AK"
"Wang Jimenez";"(905) 978-9468";"P.O. Box 655, 6628 Vitae, Rd.";"Pocatello";"ID"
"Yolanda Cain";"(729) 748-9270";"P.O. Box 270, 2571 Maecenas Avenue";"College";"AK"
"Flynn Vazquez";"(598) 855-1557";"174-6308 Id St.";"Burlington";"VT"
"Guy Morris";"(443) 863-7270";"3787 Augue, Rd.";"Metairie";"LA"
"Tamara Lewis";"(505) 908-9138";"8498 Nascetur St.";"Milwaukee";"WI"
"Avram Dorsey";"(804) 877-6493";"707-3216 Vitae Rd.";"Columbia";"MD"
"Bethany Oneal";"(629) 389-9327";"514-716 Rhoncus. Av.";"Metairie";"LA"
"Cole Mullins";"(561) 193-0317";"P.O. Box 843, 912 Faucibus St.";"Bloomington";"MN"
"Ifeoma Rosa";"(855) 458-5155";"Ap #821-3005 Amet, Ave";"Casper";"WY"
"Kirestin Davis";"(968) 978-3340";"902-7463 Felis Av.";"Broken Arrow";"OK"
"Emmanuel Randolph";"(873) 758-0649";"P.O. Box 777, 1806 Ac Avenue";"Nashville";"TN"
"Lyle Pratt";"(104) 840-0942";"Ap #241-1067 Mauris. Rd.";"Portland";"ME"
"Geoffrey Becker";"(426) 674-6867";"120-6819 In Avenue";"Sioux City";"IA"
"Courtney Dickerson";"(945) 994-9329";"178-4407 Sollicitudin Av.";"Toledo";"OH"
"Aladdin Cooley";"(638) 653-0829";"Ap #271-8972 Velit Rd.";"Saint Louis";"MO"
"Rosalyn Baker";"(619) 104-0056";"Ap #877-1339 Hendrerit Ave";"Racine";"WI"
"Jolie Aguilar";"(563) 326-3417";"P.O. Box 760, 8400 Nibh Av.";"Harrisburg";"PA"
"Coby Barrera";"(483) 449-5049";"P.O. Box 592, 1595 Suspendisse St.";"Atlanta";"GA"
"Brandon Gates";"(296) 516-8568";"P.O. Box 440, 1278 Ornare. Rd.";"Tuscaloosa";"AL"
"Zenaida Hodges";"(758) 173-9875";"9290 Quis Rd.";"Flint";"MI"
"Josiah Merritt";"(420) 939-8112";"P.O. Box 497, 8058 Fringilla. Rd.";"New Orleans";"LA"
"Grant French";"(222) 921-1747";"565 Lorem, St.";"San Francisco";"CA"
"Jillian Rios";"(663) 782-0664";"P.O. Box 775, 256 Aliquam St.";"Colchester";"VT"
"Marvin Kaufman";"(994) 994-7846";"2531 Augue, St.";"Springfield";"MO"
"Clementine Griffin";"(489) 154-7208";"8179 Erat Avenue";"Jonesboro";"AR"
"Cedric Horne";"(676) 843-0201";"P.O. Box 675, 9263 Amet Av.";"Colchester";"VT"
"Diana Mcdonald";"(952) 130-3766";"Ap #875-1027 Ut Rd.";"Shreveport";"LA"
"Sara Sosa";"(391) 757-8413";"168-1882 Nisi Av.";"Davenport";"IA"
"Kendall Williams";"(121) 665-5970";"6044 Sed Avenue";"Biloxi";"MS"
"Juliet Campos";"(908) 668-1279";"Ap #302-651 Ut Street";"College";"AK"
"Dora Roberts";"(609) 802-8601";"P.O. Box 672, 301 Arcu. Road";"Memphis";"TN"
"Carl Austin";"(848) 137-4421";"P.O. Box 332, 9103 Auctor. Rd.";"Minneapolis";"MN"
"Ryder Newman";"(838) 153-1960";"P.O. Box 121, 7817 Est. Road";"Ketchikan";"AK"
"Duncan Bryan";"(228) 575-9035";"3763 Volutpat Road";"Toledo";"OH"
"Phyllis Park";"(557) 377-8891";"P.O. Box 463, 9629 Libero. Rd.";"Shreveport";"LA"
"Castor Strickland";"(905) 160-1993";"Ap #104-6212 Bibendum. Ave";"Toledo";"OH"
"Samson Howard";"(279) 191-4096";"922 Suspendisse Road";"Miami";"FL"
"Julie Page";"(374) 841-2620";"176-4010 Posuere Road";"Southaven";"MS"
"Jaquelyn Vargas";"(513) 911-6293";"P.O. Box 957, 8182 Cras Ave";"Fairbanks";"AK"
"Ali Johnson";"(529) 948-9741";"1682 Nostra, Ave";"Nashville";"TN"
"Mallory Garza";"(773) 328-1804";"6055 Massa St.";"Gillette";"WY"
"Hilda Stewart";"(216) 257-2054";"4541 Turpis. Street";"Baton Rouge";"LA"
"Jonah Ray";"(250) 119-7185";"100-2747 A, Av.";"Springfield";"IL"
"Idola Hall";"(176) 353-8594";"Ap #894-6569 Ac Avenue";"Casper";"WY"
"Erasmus Compton";"(261) 999-8342";"162-5055 Magna, Street";"Chicago";"IL"
"Dieter Newton";"(542) 996-1348";"Ap #777-986 Feugiat St.";"Seattle";"WA"
"Timon Gibbs";"(626) 345-6521";"1198 Pede, Avenue";"Sandy";"UT"
"Curran Massey";"(288) 384-2636";"Ap #627-7230 Sed Avenue";"Green Bay";"WI"
"Shelby Cobb";"(627) 773-3319";"6050 Elementum, Av.";"Omaha";"NE"
"Karleigh Walton";"(844) 250-9018";"336-8380 Ut, Rd.";"Olathe";"KS"
"Kiara Rios";"(546) 660-4254";"P.O. Box 917, 5032 Dapibus Avenue";"Dover";"DE"
"Brynn Beck";"(628) 380-6815";"819-8913 Quisque Street";"Chicago";"IL"
"Amir Battle";"(908) 728-2659";"P.O. Box 545, 1770 Dis Street";"Hattiesburg";"MS"
"Kai Fields";"(617) 444-4419";"748-6886 Nulla. St.";"Portland";"OR"
"Sylvester Weber";"(621) 973-5452";"8044 Urna Ave";"Gary";"IN"
"Jena Griffin";"(795) 707-1258";"140-1835 Erat Ave";"Gaithersburg";"MD"
"Charles Hughes";"(182) 808-5493";"P.O. Box 611, 2601 Duis Av.";"Columbus";"OH"
"Imogene Oconnor";"(893) 553-0734";"9255 Imperdiet Avenue";"Newport News";"VA"
"Sonya Little";"(295) 586-1127";"5796 Cubilia St.";"Gaithersburg";"MD"
"Demetria Delacruz";"(435) 198-9495";"1266 Donec Road";"Sandy";"UT"
"Hanna Mason";"(259) 879-4346";"P.O. Box 982, 6110 Ac Street";"Minneapolis";"MN"
"Orli Sharpe";"(697) 117-3551";"P.O. Box 196, 4900 Fringilla Rd.";"Idaho Falls";"ID"
"Charlotte Carter";"(931) 799-3606";"626-2301 Pellentesque Rd.";"Colchester";"VT"
"Fatima Osborne";"(150) 819-1928";"4133 Enim. Rd.";"Dallas";"TX"
"Cruz Emerson";"(350) 261-6650";"440 Est, Rd.";"Salem";"OR"
"Allistair Trevino";"(545) 858-6079";"707-5499 Nec Av.";"Naperville";"IL"
"Farrah Pace";"(751) 733-5957";"P.O. Box 493, 5657 Enim, Av.";"Eugene";"OR"
"Kennan Barrera";"(207) 109-1076";"Ap #732-2655 Pellentesque St.";"Boston";"MA"
"Ulric Parks";"(284) 685-5181";"P.O. Box 353, 7610 Parturient Road";"Provo";"UT"
"Lacota Perry";"(836) 793-4683";"P.O. Box 233, 394 Integer Rd.";"Tacoma";"WA"
"Akeem Hansen";"(589) 219-9332";"2106 Dictum St.";"Kailua";"HI"
"Hiram Rodriquez";"(905) 990-9969";"7335 Porttitor St.";"Detroit";"MI"
"Ila Chavez";"(713) 156-5105";"P.O. Box 644, 6572 In Rd.";"Lawton";"OK"
"Hannah Carroll";"(558) 396-1902";"972-4393 Nec Rd.";"Wilmington";"DE"
"Todd Hammond";"(831) 666-0590";"Ap #361-1932 Rhoncus. Av.";"Topeka";"KS"
"Clare Barry";"(899) 630-9686";"902-4628 At, Rd.";"South Bend";"IN"
"Rhoda Fox";"(591) 205-2626";"Ap #517-2777 Fringilla Rd.";"Columbia";"MO"
"Doris Beach";"(858) 379-9743";"Ap #515-7791 Ornare, St.";"Provo";"UT"
"Xerxes Dillon";"(399) 981-1957";"1438 Quisque Street";"Lewiston";"ME"
"Michael Buchanan";"(921) 642-3524";"6742 Consequat Rd.";"Grand Island";"NE"
"Selma Burke";"(851) 817-6433";"P.O. Box 435, 7978 Mauris Av.";"College";"AK"
"Cheryl Dominguez";"(673) 515-0513";"P.O. Box 606, 5701 Malesuada Ave";"Broken Arrow";"OK"
"Walker Howe";"(374) 393-2327";"Ap #417-9930 Ultricies Avenue";"Tacoma";"WA"
"Jasper Ray";"(502) 293-5605";"P.O. Box 191, 1154 Cursus, Avenue";"Sacramento";"CA"
"Patience Merritt";"(312) 876-6400";"Ap #817-4891 Phasellus Avenue";"Fort Smith";"AR"
"Jelani Garner";"(270) 894-3392";"6863 Ornare. Ave";"Honolulu";"HI"
"Wade Rich";"(163) 261-7487";"Ap #754-8051 Ut Avenue";"Cincinnati";"OH"
"Eleanor Gentry";"(536) 340-3640";"Ap #690-3781 Morbi Rd.";"Hilo";"HI"
"India Sawyer";"(503) 626-7636";"326-5399 Elit, Road";"Warren";"MI"
"William Trevino";"(217) 303-9779";"P.O. Box 798, 1021 Dui. Ave";"Bozeman";"MT"
"Kimberly Whitney";"(697) 674-9240";"Ap #322-9520 Rhoncus. St.";"Rock Springs";"WY"
"Zelenia Bryant";"(551) 592-1150";"180-6547 Sagittis Ave";"Independence";"MO"
"Diana Lott";"(582) 146-2508";"8065 Accumsan Ave";"Vancouver";"WA"
"Magee Ferguson";"(156) 928-2738";"3436 Maecenas Street";"Pocatello";"ID"
"Kathleen Gardner";"(777) 247-4584";"Ap #393-8495 Senectus St.";"Hattiesburg";"MS"
"Cole Payne";"(418) 163-6964";"9199 Quisque Ave";"Olathe";"KS"
"Lamar Stone";"(584) 588-0831";"P.O. Box 364, 7563 Vitae, Avenue";"Olathe";"KS"
"Gage Cain";"(286) 819-3833";"771-7172 Condimentum Ave";"Meridian";"ID"
"Byron Fox";"(925) 317-6264";"840-5901 Enim. St.";"Lewiston";"ME"
"Macaulay Downs";"(227) 846-1514";"Ap #459-2776 Non St.";"Lafayette";"LA"
"Maxwell Banks";"(553) 839-9152";"9522 Aliquet Road";"Grand Island";"NE"
"Brianna Sparks";"(447) 839-4025";"5627 Adipiscing Road";"Kansas City";"KS"
"Magee Murray";"(618) 126-7231";"2894 Odio. Road";"Kansas City";"MO"
"Kelly Hamilton";"(808) 695-7503";"P.O. Box 777, 3533 Magna. Rd.";"Warren";"MI"
"Edward Burke";"(608) 683-1281";"640-7619 Mauris Rd.";"College";"AK"
"Nathaniel Prince";"(179) 154-7477";"Ap #341-2755 Primis St.";"Des Moines";"IA"
"Leroy Hays";"(250) 370-6203";"5362 Odio St.";"Olympia";"WA"
"Alden Parker";"(230) 744-6110";"Ap #358-7542 Convallis St.";"Ketchikan";"AK"
"Thaddeus Kinney";"(638) 420-1142";"Ap #394-4226 Molestie Avenue";"Stamford";"CT"
"Hoyt Michael";"(648) 973-4641";"277-6638 Arcu. Ave";"Wyoming";"WY"
"Sonia Bell";"(132) 137-4690";"5540 Id, Av.";"Fort Collins";"CO"
"Harlan Gay";"(306) 513-3937";"166-8441 A St.";"Norman";"OK"
"Honorato Barnett";"(138) 357-5871";"Ap #434-9310 At Road";"Lexington";"KY"
"Nasim Christensen";"(219) 280-5554";"278-6054 Donec Rd.";"Olathe";"KS"
"Naida Kemp";"(685) 305-0082";"578-5321 Integer Av.";"Nampa";"ID"
"Amir Mcneil";"(106) 164-3358";"Ap #920-3192 Tempor Ave";"Biloxi";"MS"
"Justina Henderson";"(457) 827-3123";"478-8324 Sit Street";"Stamford";"CT"
"Kevyn Roy";"(771) 773-0815";"P.O. Box 725, 424 Velit St.";"West Jordan";"UT"
"Inez Fry";"(861) 721-1887";"729-8687 Adipiscing, Ave";"Reading";"PA"
"Bevis Mcfadden";"(602) 378-0067";"Ap #716-3927 Interdum Road";"Aurora";"IL"
"Gail Randall";"(923) 930-4916";"P.O. Box 703, 3783 Vestibulum Av.";"Bridgeport";"CT"
"Ahmed Snider";"(524) 832-8356";"9765 Ac Avenue";"Springfield";"IL"
"Clementine Conley";"(136) 682-8649";"681-9706 Sit Street";"Warren";"MI"
"Caldwell Garrison";"(793) 537-6647";"P.O. Box 886, 8404 Risus. Av.";"Kearney";"NE"
"Yuri Riggs";"(118) 368-8302";"P.O. Box 505, 9684 Ac Avenue";"Iowa City";"IA"
"Cheryl Barrera";"(620) 177-2377";"Ap #690-8414 Id, St.";"Indianapolis";"IN"
"Rinah Russell";"(322) 646-1903";"Ap #726-3275 Amet, Avenue";"San Francisco";"CA"
"Herrod Baxter";"(835) 437-7836";"Ap #529-7723 Mauris Rd.";"Evansville";"IN"
"Malachi Moss";"(114) 487-9423";"P.O. Box 230, 5198 Mauris Ave";"Chicago";"IL"
"Gregory Hendricks";"(569) 523-4829";"7776 Gravida. Road";"Reno";"NV"
"Grant Logan";"(976) 874-9490";"Ap #970-4320 Elit Street";"Kaneohe";"HI"
"Kasper Briggs";"(872) 819-6129";"8114 Ultricies Road";"Gary";"IN"
"Jennifer Juarez";"(473) 726-0468";"Ap #477-6457 Lacinia Road";"Bozeman";"MT"
"Emerald Peters";"(495) 361-3803";"P.O. Box 144, 4163 Tristique Avenue";"Reno";"NV"
"Reagan Parrish";"(704) 730-6611";"4345 Suspendisse Rd.";"Henderson";"NV"
"Kendall Nash";"(876) 616-5034";"576-3353 Proin St.";"Fort Smith";"AR"
"Cadman Owens";"(840) 205-9718";"1704 Scelerisque Ave";"Salem";"OR"
"Gregory Nash";"(442) 594-3144";"P.O. Box 902, 3231 Ullamcorper St.";"Los Angeles";"CA"
"Damon Mcguire";"(847) 512-9749";"674-5638 Suspendisse Rd.";"Kansas City";"KS"
"Rahim Roy";"(151) 567-1800";"Ap #522-846 Vivamus Rd.";"Bowling Green";"KY"
"Eve Duke";"(964) 814-6314";"549-6345 Sed Avenue";"Bellevue";"WA"
"Ira Lucas";"(321) 762-4553";"782-9505 Dolor Rd.";"Richmond";"VA"
"Sopoline Callahan";"(927) 435-5816";"P.O. Box 350, 4416 Pellentesque St.";"Boise";"ID"
"Benedict Stewart";"(186) 416-6486";"542-8478 In Rd.";"Essex";"VT"
"Maxine Hines";"(209) 174-2883";"Ap #133-2740 Lorem Av.";"Fort Smith";"AR"
"Upton Emerson";"(887) 593-6202";"663-1985 Eget, Rd.";"Idaho Falls";"ID"
"Cadman Cannon";"(829) 308-7696";"P.O. Box 638, 3457 Justo Avenue";"Saint Paul";"MN"
"Alika Phillips";"(509) 519-7503";"7691 Lacus. Street";"Aurora";"CO"
"Brynn Dodson";"(548) 556-5596";"7870 Sit Rd.";"Columbus";"OH"
"Jelani Rosales";"(297) 146-6298";"759-3480 Lectus Rd.";"Overland Park";"KS"
"Jessamine Kelley";"(617) 202-8518";"6367 Egestas. Ave";"Kansas City";"KS"
"Hyatt Odom";"(733) 340-9196";"P.O. Box 486, 3258 Arcu. St.";"Fort Collins";"CO"
"Ebony Stout";"(266) 540-8405";"Ap #577-2896 Vitae, St.";"Iowa City";"IA"
"Amir Wong";"(566) 624-3224";"3298 Lorem, St.";"Akron";"OH"
"Amena Carney";"(544) 793-9923";"Ap #333-300 Tincidunt, Street";"Fort Collins";"CO"
"Hayes Graves";"(144) 464-9801";"922-5460 Nulla. Av.";"Oklahoma City";"OK"
"Sigourney Bird";"(853) 392-8232";"453-1410 Vulputate Street";"Athens";"GA"
"Zenia Ellison";"(648) 117-3042";"781-4033 Convallis Avenue";"Fort Smith";"AR"
"Mason Montgomery";"(468) 187-0436";"325-2584 Volutpat Av.";"Sandy";"UT"
"Brent Mayo";"(109) 513-5758";"Ap #106-9871 Sed Rd.";"Anchorage";"AK"
"Mechelle Vaughn";"(161) 454-4388";"848-3052 Sed St.";"Colorado Springs";"CO"
"Inez Carver";"(448) 471-0187";"7714 Non, Avenue";"Portland";"OR"
"Uta Mcclain";"(380) 502-7977";"537-2187 Sodales Road";"Tulsa";"OK"
"Beau Davidson";"(870) 825-9197";"1730 Sed St.";"Kenosha";"WI"
"Wang Pate";"(441) 719-7799";"Ap #199-1837 Magna Rd.";"Topeka";"KS"
"Burke Schroeder";"(835) 905-4530";"126 Urna. Road";"Akron";"OH"
"Tanek Keller";"(464) 333-5858";"P.O. Box 834, 2272 Metus. St.";"Newark";"DE"
"Ainsley Goodman";"(908) 511-6434";"Ap #955-8116 Magnis St.";"Bloomington";"MN"
"Lucas Blankenship";"(176) 442-2814";"Ap #764-1669 Sociis Rd.";"Spokane";"WA"
"Delilah Hogan";"(297) 407-4656";"Ap #225-547 Magnis St.";"Cleveland";"OH"
"Malcolm Bentley";"(684) 952-6230";"388-8140 Et Ave";"Honolulu";"HI"
"Ferdinand Mercer";"(251) 902-2525";"881-884 Velit St.";"Flint";"MI"
"Dorian Wright";"(546) 495-7154";"Ap #341-9730 Non Avenue";"New Haven";"CT"
"Felix Serrano";"(688) 830-0110";"P.O. Box 663, 1444 Ullamcorper Street";"Nashville";"TN"
"Troy Mcclure";"(610) 644-3813";"P.O. Box 172, 8009 Euismod Ave";"Stamford";"CT"
"Malik Ashley";"(669) 765-0087";"195-1227 Consectetuer Street";"Boise";"ID"
"Zenaida Lloyd";"(318) 515-5631";"755-4423 Quisque Ave";"Lansing";"MI"
"Knox Acevedo";"(129) 542-6321";"114-5500 Aliquam Rd.";"Wyoming";"WY"
"Tanek Cochran";"(657) 742-7468";"702-6807 Mi. Avenue";"Columbia";"MD"
"Basia House";"(441) 609-2334";"447-8177 Donec Ave";"Broken Arrow";"OK"
"Harding Yang";"(952) 242-3516";"Ap #390-8542 Sed St.";"New Orleans";"LA"
"Kermit Giles";"(981) 917-3094";"P.O. Box 534, 5943 Non Road";"Frankfort";"KY"
"Zelenia Talley";"(272) 225-9615";"Ap #950-5041 Imperdiet Ave";"North Las Vegas";"NV"
"Shad Stokes";"(274) 294-0317";"P.O. Box 352, 4213 Feugiat Ave";"Madison";"WI"
"Slade Perez";"(519) 942-4274";"P.O. Box 471, 8195 Aliquam St.";"Idaho Falls";"ID"
"Mallory Franks";"(972) 745-4109";"Ap #564-542 Eu Rd.";"Pike Creek";"DE"
"Cassandra Howard";"(559) 462-0142";"Ap #633-1098 Ligula Avenue";"Montgomery";"AL"
"Lilah Bartlett";"(218) 650-5260";"6075 Ut, Ave";"Bowling Green";"KY"
"Chloe Cunningham";"(273) 246-6385";"732-4507 Nunc Street";"Colorado Springs";"CO"
"Faith Wheeler";"(801) 554-8067";"7779 Eget Ave";"Grand Island";"NE"
"Nyssa Blackwell";"(663) 443-8878";"744-1746 Tempor, Av.";"Harrisburg";"PA"
"Herrod Rodriguez";"(419) 546-0290";"493-7550 Eros Rd.";"Gresham";"OR"
"Aiko Garrison";"(527) 576-1725";"P.O. Box 940, 6875 Mollis Av.";"Covington";"KY"
"Marvin Parsons";"(521) 318-8901";"954-6579 Vehicula Road";"Missoula";"MT"
"Fiona Lopez";"(573) 718-3305";"Ap #618-5883 Lorem Rd.";"Pocatello";"ID"
"Alika Weiss";"(105) 800-5653";"3482 Non Street";"Springdale";"AR"
"Amal Dillon";"(580) 665-3845";"935-2246 Lectus. Ave";"San Francisco";"CA"
"Sacha Craft";"(380) 919-9117";"P.O. Box 122, 5345 Dolor Street";"Huntsville";"AL"
"Tyrone Buchanan";"(845) 891-4449";"Ap #242-1039 Dolor. Avenue";"Dover";"DE"
"Vernon Weiss";"(261) 416-7833";"165-6472 Vitae Road";"Auburn";"ME"
"Oprah Bridges";"(938) 664-8264";"Ap #306-2285 Dolor Road";"Iowa City";"IA"
"Chadwick Alexander";"(395) 748-5016";"134-8745 Urna. Ave";"Springfield";"IL"
"Kane Nicholson";"(971) 843-6181";"Ap #679-2422 At, Street";"Auburn";"ME"
"Tyler Robbins";"(953) 759-1941";"9985 Ac Road";"Des Moines";"IA"
"Amos Huff";"(148) 292-7295";"P.O. Box 210, 5448 Pellentesque Avenue";"South Burlington";"VT"
"Madeson Smith";"(410) 401-0476";"P.O. Box 954, 8205 Mauris Rd.";"Norfolk";"VA"
"Camilla Chaney";"(653) 172-2967";"889 Convallis St.";"Indianapolis";"IN"
"Craig Ford";"(412) 433-3559";"788-1123 Tristique St.";"Bloomington";"MN"
"Beck Hunter";"(469) 194-5605";"761-1873 Suspendisse Street";"Fort Wayne";"IN"
"Bernard Little";"(472) 584-1616";"546-959 Volutpat. Street";"Tacoma";"WA"
"Alexa Ferguson";"(496) 419-0325";"Ap #676-8342 Sem St.";"Kailua";"HI"
"Ishmael Hall";"(250) 105-4599";"414-9442 Morbi St.";"Southaven";"MS"
"Nasim Faulkner";"(968) 779-7535";"P.O. Box 169, 2951 Eu Rd.";"Ketchikan";"AK"
"Allegra Morgan";"(955) 307-2199";"961-4519 Mauris Avenue";"Norfolk";"VA"
"Ulla Gentry";"(369) 285-1774";"P.O. Box 408, 854 Tristique Rd.";"Memphis";"TN"
"Lucy Grimes";"(310) 813-6556";"168-3681 Eros Rd.";"Birmingham";"AL"
"Tamekah Wilson";"(350) 767-0276";"9417 Aenean Rd.";"Gillette";"WY"
"Devin Garza";"(350) 263-7238";"494-9510 Cursus, Street";"Denver";"CO"
"Quyn Adams";"(885) 775-7382";"7763 Neque Street";"Juneau";"AK"
"Cara Bates";"(510) 380-9470";"5640 Mi Road";"Salt Lake City";"UT"
"Elizabeth Brooks";"(981) 608-9003";"8042 Praesent St.";"Oklahoma City";"OK"
"Cullen Bradford";"(524) 287-3919";"P.O. Box 983, 6171 Aptent Ave";"Grand Rapids";"MI"
"Dawn Mercado";"(792) 574-3888";"Ap #261-3937 Amet St.";"Tacoma";"WA"
"Ivy Berry";"(653) 539-9939";"788-9157 Orci Avenue";"Detroit";"MI"
"Chaney Wright";"(237) 505-6661";"375-2295 Lorem. St.";"West Jordan";"UT"
"Odysseus Hatfield";"(309) 594-9849";"6968 Magna. Rd.";"Knoxville";"TN"
"Demetria Boone";"(810) 213-3659";"3773 Tellus. Rd.";"Auburn";"ME"
"Regina Levy";"(395) 296-5096";"Ap #753-7242 Leo. Avenue";"Richmond";"VA"
"Farrah Nixon";"(776) 206-9277";"3154 Non, Road";"Idaho Falls";"ID"
"Mariko Mathis";"(783) 395-2029";"854-2756 Libero St.";"Green Bay";"WI"
"Kimberly Simmons";"(702) 566-8896";"Ap #357-5393 Egestas Ave";"Lexington";"KY"
"Tucker Roach";"(725) 783-4179";"Ap #312-1047 Lacinia. St.";"Cambridge";"MA"
"Leigh Curtis";"(834) 707-1596";"P.O. Box 140, 2051 Amet St.";"Overland Park";"KS"
"Griffin Hammond";"(277) 760-1055";"P.O. Box 424, 6951 Enim. Avenue";"Helena";"MT"
"Clarke Roberts";"(553) 932-8171";"819-7846 Adipiscing Rd.";"Aurora";"CO"
"Vanna Moss";"(696) 536-5835";"407-5762 Neque Street";"College";"AK"
"Lillith Lester";"(839) 783-7683";"948-2159 Suspendisse Avenue";"Springfield";"MA"
"Joshua Allison";"(470) 235-7986";"P.O. Box 931, 8173 Arcu Ave";"Meridian";"ID"
"Debra Lindsey";"(204) 230-9428";"325-678 In, Rd.";"College";"AK"
"Brandon Bird";"(226) 302-5193";"255-163 Purus, Av.";"Saint Louis";"MO"
"Abdul Porter";"(171) 676-6946";"P.O. Box 187, 594 Vulputate, Av.";"Norman";"OK"
"Joy Mckay";"(111) 261-2098";"6708 Nunc Rd.";"Fairbanks";"AK"
"Samantha Acosta";"(704) 468-7968";"3525 Sit Road";"Hartford";"CT"
"Mallory Ramsey";"(518) 327-3469";"P.O. Box 408, 8506 Leo. Street";"Gulfport";"MS"
"Jeremy Jacobs";"(655) 290-7670";"107-2385 Vulputate, Rd.";"Wichita";"KS"
"Karen Cantu";"(749) 535-5617";"Ap #801-3624 Donec Road";"Racine";"WI"
"Hu Saunders";"(853) 225-5464";"Ap #659-5017 Non St.";"Tuscaloosa";"AL"
"Jin Puckett";"(623) 201-9823";"P.O. Box 186, 7023 Odio. Ave";"Jonesboro";"AR"
"Kelly Perry";"(897) 495-4485";"P.O. Box 959, 9781 Mattis Ave";"New Orleans";"LA"
"Eaton Rose";"(779) 110-1377";"Ap #381-5535 Cursus Rd.";"Milwaukee";"WI"
"Ivy Conley";"(374) 833-5763";"P.O. Box 865, 4027 Amet Street";"Duluth";"MN"
"Risa Butler";"(954) 728-2917";"Ap #200-1309 Penatibus Av.";"Dallas";"TX"
"Alden Prince";"(696) 333-1975";"117-3214 Ultrices, Ave";"Overland Park";"KS"
"Neve Briggs";"(152) 432-3795";"Ap #135-4944 Sem Street";"Denver";"CO"
"Belle Golden";"(697) 460-7652";"508-1534 Et, St.";"Miami";"FL"
"Cameron Walsh";"(550) 544-3691";"Ap #225-6689 Pede Rd.";"Phoenix";"AZ"
"Danielle Welch";"(353) 249-7592";"Ap #727-5393 Sem. Street";"Stamford";"CT"
"Trevor Dickerson";"(725) 940-9294";"841-993 Pede. Ave";"Juneau";"AK"
"Sara Crosby";"(545) 939-6576";"5354 Donec Ave";"Bozeman";"MT"
"Adena Lee";"(282) 810-3609";"P.O. Box 135, 2639 Facilisis Street";"West Valley City";"UT"
"Ethan Nieves";"(341) 928-0834";"1734 Molestie Street";"Naperville";"IL"
"Lev Harding";"(422) 143-8965";"7380 Vestibulum Avenue";"Honolulu";"HI"
"Trevor Fletcher";"(475) 238-0948";"P.O. Box 394, 8070 Risus. Avenue";"Hartford";"CT"
"Jason Cusner";"(799) 627-6029";"7929 Euismod Avenue";"Mesa";"AZ"
"Nadine Greene";"(488) 382-7050";"P.O. Box 770, 8724 Turpis Rd.";"St. Petersburg";"FL"
"Astra Morgan";"(504) 119-9094";"P.O. Box 387, 9774 Tincidunt Road";"Gaithersburg";"MD"
"Bradley Reese";"(348) 657-6569";"Ap #887-6701 Parturient St.";"Meridian";"ID"
"Xantha Clayton";"(560) 357-8289";"Ap #298-8447 Dui Rd.";"Chesapeake";"VA"
"Orlando Albert";"(187) 817-0516";"5731 Sodales Rd.";"Memphis";"TN"
"Cedric Cook";"(764) 892-3444";"7502 Lorem St.";"South Portland";"ME"
"Theodore Blanchard";"(543) 492-0472";"209-6212 A, St.";"Toledo";"OH"
"Yetta Henderson";"(346) 146-7196";"2600 Libero St.";"Lowell";"MA"
"Shaeleigh Shields";"(888) 702-9113";"391-7742 Malesuada Rd.";"Butte";"MT"
"Tashya Johnston";"(298) 218-2730";"Ap #528-5803 Semper, Ave";"Kenosha";"WI"
"Graiden Franklin";"(598) 555-8004";"P.O. Box 502, 8504 Tempor Road";"Provo";"UT"
"Chiquita Ayala";"(624) 697-2305";"Ap #108-5483 Sed St.";"Bellevue";"NE"
"Cynthia Welch";"(463) 343-6255";"3404 Nisi. Av.";"Columbus";"GA"
"Dante Bird";"(528) 431-3946";"827-2856 At Av.";"Ketchikan";"AK"
"MacKensie Wyatt";"(925) 780-1825";"P.O. Box 869, 4919 Cras Rd.";"Minneapolis";"MN"
"Hayley Mcdonald";"(357) 921-1480";"439 Felis St.";"Hilo";"HI"
"Joshua Medina";"(874) 848-3732";"P.O. Box 677, 9631 Phasellus Ave";"Great Falls";"MT"
"Hamilton Clay";"(664) 647-6107";"1981 Magna. Avenue";"Baton Rouge";"LA"
"Madison Melton";"(952) 581-0419";"314-1823 Adipiscing, Road";"Tampa";"FL"
"Taylor Lambert";"(236) 867-8362";"310-3098 Ultrices, Road";"Georgia";"GA"
"Calvin Herring";"(465) 272-8072";"Ap #372-5134 Vitae, Rd.";"Rutland";"VT"
"Noelle Mcfarland";"(617) 990-5692";"489-5126 Ac Road";"San Diego";"CA"
"Dante Pope";"(672) 563-3705";"756-207 Eget Street";"Huntsville";"AL"
"Dominique Bird";"(577) 917-0081";"P.O. Box 269, 4408 Mollis. Avenue";"New Orleans";"LA"
"Sophia Horn";"(261) 212-4079";"Ap #938-4941 Blandit Ave";"Chesapeake";"VA"
"Magee Trujillo";"(700) 213-8528";"Ap #433-5275 Sagittis. Ave";"Butte";"MT"
"Lunea Bender";"(939) 115-6462";"7975 Semper Rd.";"Springdale";"AR"
"Danielle Carson";"(787) 242-6178";"6770 Aliquet. Road";"Fayetteville";"AR"
"Kiayada Fulton";"(392) 510-6033";"P.O. Box 724, 905 Mollis Avenue";"Richmond";"VA"
"Wendy Brennan";"(651) 432-9937";"8781 Velit Street";"Aurora";"CO"
"Anne Koch";"(418) 991-1886";"670 Justo. Street";"Philadelphia";"PA"
"Maisie Garrison";"(561) 469-2034";"P.O. Box 698, 5409 Ac Ave";"Cambridge";"MA"
"Kennan Patterson";"(324) 924-4625";"P.O. Box 268, 6100 At Rd.";"Sterling Heights";"MI"
"Orson Mann";"(135) 163-1450";"918-7296 Fusce Ave";"Miami";"FL"
"Rhona Rivas";"(331) 378-9996";"P.O. Box 517, 5862 Ut Road";"Bellevue";"NE"
"Shea Battle";"(868) 105-6168";"9002 Enim, Av.";"Missoula";"MT"
"Maryam Soto";"(471) 492-0198";"P.O. Box 114, 2659 Dictum St.";"Des Moines";"IA"
"Myles Mcdonald";"(876) 572-3735";"P.O. Box 206, 3496 Ullamcorper St.";"Jefferson City";"MO"
"Anastasia Dickson";"(816) 343-9812";"P.O. Box 158, 5127 Et, Rd.";"Lowell";"MA"
"Brenda Aguilar";"(821) 243-6571";"2541 Eu Avenue";"Lowell";"MA"
"Camden Ingram";"(173) 935-9816";"Ap #766-6468 Semper Av.";"Annapolis";"MD"
"Chandler Serrano";"(850) 992-7405";"690-618 Facilisis. Rd.";"Hilo";"HI"
"Heather Sexton";"(888) 712-8752";"P.O. Box 116, 8589 At, Street";"Augusta";"ME"
"Fredericka Joyce";"(404) 668-5725";"P.O. Box 583, 7752 Lorem, St.";"San Diego";"CA"
"Stephen Harrell";"(323) 701-7967";"Ap #581-9455 Suspendisse Rd.";"Warren";"MI"
"Ray Kerr";"(424) 503-2204";"587-2322 Ut Rd.";"Columbia";"MD"
"Alexandra Bowers";"(411) 741-6796";"3194 Ligula Rd.";"Lexington";"KY"
"Kyle Barlow";"(713) 784-6637";"Ap #143-2613 Justo Av.";"Saint Paul";"MN"
"Shaine Torres";"(271) 429-5529";"9466 Sit Road";"Oklahoma City";"OK"
"Rhona Pearson";"(865) 884-9393";"Ap #580-4343 Nec Road";"Tampa";"FL"
"Nigel Scott";"(428) 802-1409";"Ap #501-634 Semper, St.";"Jefferson City";"MO"
"Quon Vasquez";"(486) 816-4051";"Ap #920-4935 Fringilla Rd.";"Fresno";"CA"
"Hop Norris";"(938) 224-3487";"P.O. Box 156, 1372 Egestas Road";"Georgia";"GA"
"Allistair Whitehead";"(784) 912-0311";"1096 Dolor Road";"Omaha";"NE"
"Rafael Gray";"(629) 441-6733";"P.O. Box 500, 3856 Nisl Av.";"Owensboro";"KY"
"Vaughan Miranda";"(760) 962-6197";"P.O. Box 528, 3072 Orci Street";"Tucson";"AZ"
"Beck Gilbert";"(591) 858-6123";"Ap #168-6926 Quisque Ave";"Fayetteville";"AR"
"Bethany Sheppard";"(585) 471-9117";"P.O. Box 994, 783 Arcu. Road";"Gresham";"OR"
"Violet Murphy";"(797) 377-1351";"5422 Morbi St.";"Hartford";"CT"
"Evangeline Gutierrez";"(429) 745-3563";"P.O. Box 557, 7311 Urna Street";"Fairbanks";"AK"
"Quynn Ford";"(181) 712-1997";"Ap #877-7780 Sociis Street";"Hillsboro";"OR"
"Beatrice Browning";"(678) 664-4451";"Ap #709-7212 Auctor St.";"Boise";"ID"
"Simone Dorsey";"(466) 857-1641";"Ap #968-9499 Penatibus Avenue";"Clarksville";"TN"
"Ross Gilmore";"(670) 735-0485";"6034 Imperdiet Street";"Cincinnati";"OH"
"Caesar Holloway";"(236) 245-2850";"P.O. Box 610, 7838 Odio, Street";"Gresham";"OR"
"Iona Mcfadden";"(740) 264-2141";"Ap #658-7078 Lectus Road";"Louisville";"KY"
"Hollee Carpenter";"(786) 756-8629";"P.O. Box 254, 2476 Felis, Avenue";"Colchester";"VT"
"Dolan Nixon";"(106) 744-9722";"2515 Sed Av.";"Tulsa";"OK"
"Denton Wright";"(266) 123-7220";"476-2392 Auctor Av.";"Toledo";"OH"
"Imelda Perkins";"(175) 289-8130";"P.O. Box 169, 9489 Mattis St.";"Henderson";"NV"
"Heather Wells";"(755) 720-3292";"5132 Arcu St.";"Topeka";"KS"
"Tatum Mckinney";"(835) 641-4853";"P.O. Box 123, 8731 Mauris Av.";"Saint Paul";"MN"
"Justin Sandoval";"(410) 641-0525";"828-6510 Arcu Road";"Rochester";"MN"
"Herrod Osborn";"(901) 104-4191";"Ap #653-621 Sapien, Road";"Pike Creek";"DE"
"Brenna Keller";"(108) 759-2434";"P.O. Box 611, 4639 Quis, Rd.";"Waterbury";"CT"
"Oren Kelley";"(110) 224-7214";"409-8877 Nibh. Avenue";"Flint";"MI"
"Nita Bridges";"(917) 509-2872";"Ap #464-6174 Libero Rd.";"Miami";"FL"
"Larissa Forbes";"(409) 723-1709";"P.O. Box 940, 9738 Consequat St.";"Louisville";"KY"
"Lilah Gay";"(724) 456-6723";"7847 Feugiat Av.";"Gary";"IN"
"Karleigh Saunders";"(178) 332-1485";"970-113 Et Ave";"Rockville";"MD"
"Zorita Olson";"(953) 457-3806";"Ap #358-6589 Enim. St.";"Gresham";"OR"
"Jana Simon";"(227) 538-6608";"P.O. Box 973, 4226 Laoreet Av.";"Philadelphia";"PA"
"Julie Craft";"(460) 215-1904";"P.O. Box 513, 7275 Molestie Ave";"Jonesboro";"AR"
"Abigail Hancock";"(764) 713-9705";"P.O. Box 805, 4764 Velit St.";"Gulfport";"MS"
"Penelope Grimes";"(513) 728-7928";"P.O. Box 342, 2836 Orci. Rd.";"Austin";"TX"
"Cassidy Leonard";"(405) 222-2916";"Ap #549-4641 Cursus Rd.";"Jefferson City";"MO"
"Vivian Mcconnell";"(968) 404-5866";"803-1140 Pellentesque, Ave";"Spokane";"WA"
"Ezra Tucker";"(140) 401-1554";"Ap #371-7473 Elementum Avenue";"Reading";"PA"
"Maile Sawyer";"(546) 219-0287";"P.O. Box 958, 2717 Augue Street";"Salem";"OR"
"Andrew Osborne";"(679) 987-9298";"1877 Malesuada Rd.";"College";"AK"
"Latifah Jarvis";"(618) 554-9094";"9289 Mauris St.";"Gary";"IN"
"Nita Henry";"(410) 468-3294";"8514 Adipiscing Rd.";"Omaha";"NE"
"Alexis Bass";"(304) 333-0844";"130-2496 Ornare, Street";"Fort Collins";"CO"
"Maisie Winters";"(474) 602-8713";"P.O. Box 653, 2269 Lobortis, Avenue";"Gaithersburg";"MD"
"Zeus Robertson";"(928) 610-6287";"P.O. Box 265, 1516 Vulputate, St.";"Springfield";"MO"
"Donna Fisher";"(439) 857-1581";"418-2997 Vel, Street";"Lowell";"MA"
"George Crane";"(148) 738-3335";"Ap #159-6844 Class Road";"San Antonio";"TX"
"Solomon Owen";"(924) 999-2953";"Ap #824-2487 Bibendum Street";"Kailua";"HI"
"Gage Cannon";"(477) 619-4092";"Ap #176-3015 Enim St.";"Chesapeake";"VA"
"Adam Massey";"(585) 248-2562";"694-6807 Sem. Road";"Portland";"OR"
"Vladimir Meadows";"(580) 914-1187";"5937 Dolor Rd.";"Davenport";"IA"
"Todd Vaughn";"(481) 492-1014";"229-6604 Per St.";"Sandy";"UT"
"Malcolm Thomas";"(466) 644-9997";"P.O. Box 614, 6317 Ac Road";"Colorado Springs";"CO"
"Marsden Roberson";"(962) 101-1687";"Ap #183-4715 Vel Street";"Naperville";"IL"
"Dawn Gonzales";"(873) 422-0271";"Ap #891-5462 Suspendisse Ave";"Tuscaloosa";"AL"
"Kennedy Maldonado";"(761) 859-7252";"P.O. Box 558, 2761 Faucibus. Street";"Annapolis";"MD"
"Warren Levine";"(120) 107-0754";"P.O. Box 859, 2981 Justo Rd.";"Orlando";"FL"
"Ferris Faulkner";"(209) 605-4009";"1710 Sed Rd.";"Bridgeport";"CT"
"Orson Sellers";"(239) 116-0535";"Ap #311-2142 Magna. Road";"Chandler";"AZ"
"Blossom Hill";"(108) 381-9298";"919-5397 Nibh. Road";"Montpelier";"VT"
"Lois Brooks";"(424) 843-9505";"Ap #874-6571 Convallis Rd.";"Tulsa";"OK"
"Cairo Peterson";"(556) 925-0577";"8936 Nibh St.";"Bridgeport";"CT"
"Chester Mcfadden";"(908) 390-9340";"Ap #790-7931 Volutpat. St.";"Topeka";"KS"
"Odysseus Sparks";"(419) 178-6141";"458-3947 Metus. Rd.";"Bowling Green";"KY"
"Abraham Hodges";"(837) 298-0890";"P.O. Box 151, 5527 In Av.";"Kansas City";"MO"
"Ryan Rosales";"(728) 671-9767";"Ap #419-3883 Hendrerit. Road";"Henderson";"NV"
"Ramona Robbins";"(629) 916-8353";"Ap #849-4338 Auctor Rd.";"Vancouver";"WA"
"Benjamin Stout";"(833) 734-3950";"Ap #891-6214 Sit Rd.";"Meridian";"ID"
"Kevyn Osborne";"(382) 549-2280";"167-2161 Consectetuer, Rd.";"Saint Louis";"MO"
"Kenyon Neal";"(602) 908-2549";"7578 Ultrices, Rd.";"Columbus";"OH"
"Lane Brown";"(188) 987-0205";"2409 Arcu Avenue";"Norfolk";"VA"
"Victoria Woodard";"(487) 553-1955";"Ap #863-9811 Taciti Street";"Grand Rapids";"MI"
"Blaine Howe";"(773) 876-2658";"5694 Leo. Street";"Nashville";"TN"
"Lacey Wiley";"(198) 120-4521";"P.O. Box 161, 1273 Sapien, Rd.";"Harrisburg";"PA"
"Hayfa Lucas";"(634) 437-9918";"247-7404 Sem Rd.";"Tallahassee";"FL"
"Dorothy Delacruz";"(623) 300-8342";"Ap #829-7084 Cras Street";"Naperville";"IL"
"Quemby Sykes";"(680) 630-3276";"7598 Ornare St.";"College";"AK"
"Buckminster Brock";"(634) 175-7819";"Ap #813-520 Tempor Av.";"Saint Paul";"MN"
"Ethan Rush";"(165) 855-5794";"P.O. Box 825, 5470 Dui Av.";"Lansing";"MI"
"Ebony Keller";"(215) 394-6548";"322-8528 Risus. Street";"Fort Collins";"CO"
"Gareth Burns";"(781) 596-1249";"P.O. Box 691, 9286 Quisque Street";"Hilo";"HI"
"Kirk Reyes";"(158) 554-7802";"P.O. Box 333, 7483 Tincidunt, St.";"Houston";"TX"
"Zahir Higgins";"(208) 560-1901";"Ap #226-7732 Mauris St.";"Lawton";"OK"
"Eleanor Nixon";"(390) 111-4473";"P.O. Box 709, 2549 Nonummy. Street";"Meridian";"ID"
"Alika Ayala";"(597) 256-5543";"P.O. Box 192, 8483 Placerat Street";"Springfield";"MA"
"Emery Porter";"(599) 243-9497";"5418 Donec St.";"Olathe";"KS"
"Kennedy Pennington";"(753) 141-3648";"9124 In Street";"Paradise";"NV"
"Indira Morin";"(113) 307-4819";"732-2681 Urna Rd.";"Austin";"TX"
"Joel Hopkins";"(608) 777-3757";"1481 Tincidunt Av.";"Detroit";"MI"
"Brady Bowman";"(349) 889-8658";"3369 Ligula. Road";"Southaven";"MS"
"Palmer Coleman";"(241) 137-7100";"P.O. Box 905, 8535 At Av.";"Baltimore";"MD"
"Harriet Higgins";"(537) 613-0216";"453-5306 Ad Ave";"South Bend";"IN"
"Laurel Olson";"(654) 331-2952";"984-8533 Quis Rd.";"San Antonio";"TX"
"Carolyn Battle";"(733) 564-3460";"P.O. Box 936, 6060 Curabitur Avenue";"Indianapolis";"IN"
"Bevis William";"(133) 173-7754";"970-1203 Enim Ave";"Norman";"OK"
"Lani Walker";"(961) 192-7501";"339-7541 Donec Rd.";"Green Bay";"WI"
"Aurelia Hancock";"(379) 736-8186";"9708 Amet Street";"Flint";"MI"
"Lucius Stout";"(387) 210-1978";"Ap #513-9557 Mauris Rd.";"Aurora";"CO"
"Kendall Dotson";"(845) 770-9367";"P.O. Box 271, 2298 Vel, Avenue";"Birmingham";"AL"
"Philip Moran";"(947) 609-0585";"959-6010 Dolor. Ave";"Aurora";"IL"
"Anne Vance";"(735) 312-4447";"Ap #977-1576 Sed St.";"Lowell";"MA"
"Paloma Flowers";"(366) 969-1539";"Ap #663-127 Velit. Avenue";"Green Bay";"WI"
"Karyn Hahn";"(976) 254-3412";"170-6191 Augue Avenue";"Nampa";"ID"
"Angela Anderson";"(999) 878-0945";"P.O. Box 914, 1615 Iaculis Street";"West Valley City";"UT"
"Vincent Fox";"(478) 962-7296";"2031 Sem. Ave";"Biloxi";"MS"
"Keith Odonnell";"(994) 172-8140";"P.O. Box 890, 7939 Arcu. St.";"Aurora";"IL"
"Aphrodite Avery";"(745) 856-8244";"Ap #682-9132 Varius Avenue";"Bear";"DE"
"Graham Rutledge";"(907) 586-1978";"Ap #673-5205 Diam. St.";"Clarksville";"TN"
"Ria Burke";"(532) 801-5254";"P.O. Box 846, 4309 Et St.";"Worcester";"MA"
"Keelie Gibson";"(359) 542-5975";"102-529 Massa. Rd.";"Chattanooga";"TN"
"Herrod Barry";"(360) 672-6888";"130-6612 Nostra, Avenue";"Juneau";"AK"
"Kennan Watkins";"(397) 282-7683";"982-8155 Quam Ave";"Kenosha";"WI"
"Demetrius Sutton";"(351) 882-3093";"P.O. Box 986, 6965 Velit Avenue";"Nampa";"ID"
"Audrey Juarez";"(935) 443-4124";"P.O. Box 727, 1303 Mollis Road";"Kapolei";"HI"
"Lillith English";"(207) 304-4177";"409-8289 Sed, Street";"Glendale";"AZ"
"Chaney Abbott";"(258) 734-6341";"P.O. Box 301, 5782 Non Street";"Colchester";"VT"
"Jermaine Beard";"(693) 201-3186";"709-131 Nulla St.";"West Valley City";"UT"
"Acton Howard";"(396) 592-7445";"520 Nulla. Rd.";"Broken Arrow";"OK"
"Rigel Brown";"(595) 769-7071";"832-5766 Nibh. Ave";"Jefferson City";"MO"
"Rama Church";"(662) 864-3607";"Ap #528-2195 Velit Av.";"Phoenix";"AZ"
"Christine Duffy";"(620) 543-3053";"P.O. Box 716, 7646 Nibh Avenue";"Bowling Green";"KY"
"Gillian Lott";"(890) 492-1992";"1262 Fringilla Rd.";"Fairbanks";"AK"
"Blair Strong";"(470) 646-0921";"7593 Est Street";"Boise";"ID"
"Savannah Burnett";"(516) 775-0422";"6719 Fames Av.";"Kaneohe";"HI"
"Daquan Steele";"(543) 562-9027";"2359 Nunc Avenue";"Norman";"OK"
"Chancellor Cameron";"(615) 735-3454";"4692 Tristique Road";"Salem";"OR"
"Clare Montgomery";"(922) 726-8527";"989-5785 Adipiscing St.";"Chicago";"IL"
"Teegan Patel";"(928) 508-3013";"Ap #592-2582 Amet Street";"Hartford";"CT"
"Merrill Simon";"(435) 833-8204";"720-9558 Lorem Avenue";"Topeka";"KS"
"Isaac Michael";"(941) 544-5701";"P.O. Box 124, 776 Turpis Road";"Tuscaloosa";"AL"
"Rashad Solis";"(951) 167-6897";"Ap #975-3235 In St.";"Aurora";"IL"
"Stephen Aguilar";"(678) 394-2096";"8444 Est Av.";"Green Bay";"WI"
"Wayne Kline";"(236) 422-7972";"Ap #495-7885 Mauris, St.";"Sandy";"UT"
"Amos Mendoza";"(482) 444-7269";"Ap #601-9191 Auctor. Rd.";"Seattle";"WA"
"Aquila Guthrie";"(431) 871-2297";"718 Est Rd.";"Nampa";"ID"
"Madaline Paul";"(960) 737-3458";"759-8195 Tristique Ave";"Saint Paul";"MN"
"Cadman Strong";"(837) 802-1654";"P.O. Box 793, 9135 Ornare, Avenue";"New Haven";"CT"
"Mallory Ford";"(710) 672-5466";"953-4166 Vitae Road";"Salt Lake City";"UT"
"Oren Bridges";"(241) 591-4435";"Ap #132-1613 Turpis. Avenue";"Racine";"WI"
"Paloma Chan";"(208) 357-1633";"P.O. Box 507, 3730 Tellus Avenue";"Harrisburg";"PA"
"Lee Rush";"(832) 741-1309";"Ap #915-566 Magna. Avenue";"Spokane";"WA"
"Nathan Green";"(588) 617-4132";"2534 Malesuada. Avenue";"Cedar Rapids";"IA"
"Lane Pickett";"(137) 603-4137";"2532 Lorem Ave";"Indianapolis";"IN"
"Dahlia Holman";"(700) 783-1681";"Ap #974-9895 Elementum St.";"Butte";"MT"
"Ashely Dean";"(359) 669-8784";"417-3184 Tincidunt Street";"Wichita";"KS"
"Otto Joyner";"(836) 477-0325";"642-3035 Pellentesque Road";"Sacramento";"CA"
"Shelly Matthews";"(125) 627-6986";"496-3261 Sed St.";"Ketchikan";"AK"
"Ishmael Sandoval";"(695) 990-4816";"698-3802 Sodales Ave";"Montpelier";"VT"
"Mallory Berg";"(789) 417-8709";"7861 Amet, St.";"Louisville";"KY"
"Ashton Randolph";"(724) 763-8361";"Ap #451-8133 Nam St.";"Kenosha";"WI"
"Josephine Hart";"(535) 709-0665";"2824 Sit St.";"Waterbury";"CT"
"Kennedy May";"(985) 648-7355";"2736 Vulputate Rd.";"Aurora";"IL"
"Kyla Fischer";"(409) 358-4965";"8311 Sociis Rd.";"Naperville";"IL"
"Haley Mcmillan";"(111) 657-8060";"P.O. Box 303, 4969 Magnis Road";"Atlanta";"GA"
"Lysandra Ferguson";"(385) 263-4449";"P.O. Box 443, 903 Nunc Ave";"South Bend";"IN"
"Anthony Rush";"(884) 267-1712";"5489 Aliquet. Street";"Flint";"MI"
"Jakeem Dale";"(515) 360-8467";"P.O. Box 513, 3667 Urna Av.";"Gaithersburg";"MD"
"Carolyn Blevins";"(984) 983-8383";"Ap #156-4606 Lorem Rd.";"Auburn";"ME"
"Kuame Cummings";"(400) 262-0757";"Ap #585-1407 Sagittis St.";"Lincoln";"NE"
"Amela Mack";"(279) 602-1002";"215-7975 Nam St.";"Glendale";"AZ"
"Erich Jordan";"(643) 110-4717";"Ap #995-1956 Nulla Road";"Kearney";"NE"
"Steel Fletcher";"(588) 159-7087";"123-958 Suspendisse Ave";"Jonesboro";"AR"
"Tobias Carpenter";"(256) 791-2003";"297-7142 Aenean St.";"Memphis";"TN"
"Shaine Flowers";"(247) 577-6211";"P.O. Box 228, 5771 Tellus St.";"South Portland";"ME"
"Alyssa Jennings";"(131) 816-6839";"Ap #104-5750 Mi, St.";"Fort Smith";"AR"
"Akeem Shepard";"(755) 488-6818";"544 Vulputate, Street";"Boise";"ID"
"Brittany Ellis";"(237) 166-2721";"Ap #893-4481 Ac Street";"Lowell";"MA"
"Ariel Dorsey";"(600) 627-3065";"Ap #480-9647 Aliquet Road";"Davenport";"IA"
"Byron Barker";"(478) 385-4859";"275-4485 Ultrices St.";"Kansas City";"KS"
"Caesar Fox";"(495) 299-2042";"654-1694 Ante Road";"Fort Wayne";"IN"
"Christen Page";"(218) 706-6017";"9072 Egestas Av.";"Racine";"WI"
"Kamal Merritt";"(766) 773-2538";"134-2774 Dui. Street";"Gary";"IN"
"Deacon Fox";"(900) 294-2502";"Ap #844-6923 Sagittis Rd.";"Cedar Rapids";"IA"
"Reed Christian";"(602) 436-9771";"9929 Commodo St.";"Saint Louis";"MO"
"Colt Christian";"(835) 507-4969";"710-168 Purus Rd.";"Erie";"PA"
"Charity Holden";"(196) 396-3425";"P.O. Box 526, 5590 Vestibulum. Ave";"Butte";"MT"
"Dacey Cervantes";"(406) 832-5845";"P.O. Box 813, 5792 Sem Road";"Augusta";"ME"
"Zephr Dale";"(282) 832-4953";"P.O. Box 316, 4249 Suspendisse Ave";"Memphis";"TN"
"Vera Hahn";"(905) 599-9346";"Ap #135-7614 Interdum. St.";"Savannah";"GA"
"Breanna Mcintyre";"(668) 318-5732";"Ap #818-557 Velit Road";"Boise";"ID"
"Kerry Sanders";"(192) 961-4772";"P.O. Box 367, 5457 Hendrerit. Rd.";"Fort Wayne";"IN"
"Yoshio Reid";"(784) 523-0349";"162-8910 Odio Ave";"New Orleans";"LA"
"Miriam Avila";"(225) 762-5119";"9699 Egestas Road";"West Valley City";"UT"
"Wyatt Copeland";"(432) 379-0219";"229-975 Integer Ave";"Aurora";"IL"
"Vincent Boone";"(559) 113-5345";"P.O. Box 394, 678 Natoque St.";"Clarksville";"TN"
"Emery Morin";"(827) 749-0559";"P.O. Box 153, 1128 At Rd.";"Cambridge";"MA"
"Dora Santos";"(946) 486-4612";"Ap #355-6123 Sodales St.";"Eugene";"OR"
"Macey Wilcox";"(365) 686-3541";"P.O. Box 794, 7023 Eget, Road";"Bloomington";"MN"
"Jason Wallace";"(260) 227-1896";"6719 Fringilla St.";"Helena";"MT"
"Pamela Carlson";"(194) 868-6981";"Ap #220-5658 Placerat, Av.";"Tuscaloosa";"AL"
"Pearl Diaz";"(391) 440-1921";"2963 Ut St.";"Davenport";"IA"
"Cole Mccullough";"(256) 446-4235";"6315 Ante. Rd.";"Joliet";"IL"
"Candice Pope";"(804) 278-3809";"P.O. Box 547, 3443 Lectus Avenue";"Meridian";"ID"
"Aimee Mcgee";"(857) 545-6921";"185-7716 Scelerisque St.";"Allentown";"PA"
"Keefe Cooper";"(334) 492-1418";"P.O. Box 507, 3845 Id Rd.";"Glendale";"AZ"
"Lucius Mclean";"(436) 904-7620";"3594 Aenean Street";"Akron";"OH"
"Ursula Johnson";"(874) 137-9059";"4427 Nec Street";"Orlando";"FL"
"Sonia Booth";"(370) 124-7049";"P.O. Box 615, 2747 Ipsum St.";"Sioux City";"IA"
"Nicole Haynes";"(204) 486-5997";"614-3584 Lorem, Rd.";"Omaha";"NE"
"Josephine Hancock";"(208) 144-0792";"P.O. Box 144, 8893 Magna, Road";"Lowell";"MA"
"Maxwell Meadows";"(184) 412-7089";"P.O. Box 218, 8495 Duis Rd.";"Grand Island";"NE"
"Harriet Sharpe";"(597) 292-2615";"466-7173 Morbi Rd.";"Provo";"UT"
"Madison Alvarez";"(799) 277-8386";"7206 Elit Av.";"Bangor";"ME"
"Gwendolyn Trevino";"(906) 706-2830";"P.O. Box 373, 6838 Quam. Road";"Nampa";"ID"
"Charde Glenn";"(120) 154-5237";"P.O. Box 464, 346 Cras Street";"Flint";"MI"
"Steven Mcintosh";"(134) 385-2910";"Ap #430-6219 Nibh. St.";"Indianapolis";"IN"
"Sylvia Pate";"(822) 658-2188";"892-1007 Eleifend St.";"Portland";"OR"
"Jordan Schmidt";"(489) 223-8277";"Ap #282-9925 Lectus. Rd.";"San Diego";"CA"
"Fleur Rose";"(675) 821-5465";"9987 Suspendisse Avenue";"Colorado Springs";"CO"
"Aileen Beach";"(527) 903-3350";"P.O. Box 290, 6074 Eget, Avenue";"Memphis";"TN"
"Lawrence Clark";"(378) 899-6373";"Ap #117-7797 Mollis Road";"Wilmington";"DE"
"Acton Mayo";"(781) 510-5061";"P.O. Box 475, 104 Eu Rd.";"Fort Worth";"TX"
"Barclay Avery";"(342) 603-2185";"P.O. Box 952, 6981 Lobortis. Avenue";"Little Rock";"AR"
"Carlos Caldwell";"(957) 781-8667";"2576 Vel Road";"Topeka";"KS"
"Benjamin Whitley";"(811) 646-3536";"3051 Fringilla Avenue";"Metairie";"LA"
"Aubrey Douglas";"(656) 972-6079";"703 Elit Rd.";"Kaneohe";"HI"
"Leroy Mcconnell";"(669) 618-2677";"119-4388 Magnis Ave";"Annapolis";"MD"
"Malachi Farrell";"(441) 950-8840";"584-7860 Pede, Ave";"Sioux City";"IA"
"Sebastian Doyle";"(640) 996-1020";"554 Tellus St.";"Bridgeport";"CT"
"Samuel Maddox";"(470) 210-7822";"6769 Lobortis Road";"Montpelier";"VT"
"Briar Mcconnell";"(987) 280-7002";"P.O. Box 973, 1419 Porttitor Rd.";"Bridgeport";"CT"
"Vincent Ramirez";"(533) 922-5091";"Ap #200-5555 Convallis, Street";"Hillsboro";"OR"
"Tashya Blair";"(617) 232-3818";"P.O. Box 643, 9341 Est, Av.";"Frederick";"MD"
"Vladimir Shaw";"(243) 421-4417";"344-3301 Nibh. St.";"Rockville";"MD"
"Keefe Noel";"(988) 230-5666";"6521 Cras Avenue";"Columbus";"OH"
"Kenneth Mays";"(341) 199-8405";"P.O. Box 598, 7302 Velit. Ave";"Sterling Heights";"MI"
"Jasper Jennings";"(325) 408-7134";"1642 A, Street";"Sandy";"UT"
"Brooke Hernandez";"(868) 152-6698";"980-3117 Ante Av.";"Idaho Falls";"ID"
"Hiroko Harmon";"(456) 153-1725";"Ap #964-8498 Egestas Rd.";"West Jordan";"UT"
"Leslie Reese";"(277) 150-9256";"P.O. Box 409, 7287 Magnis Avenue";"Sandy";"UT"
"Zachary Crawford";"(106) 487-2171";"612-8986 Aenean Rd.";"Nashville";"TN"
"Rosalyn Mathis";"(528) 439-0947";"3959 Arcu. St.";"Fayetteville";"AR"
"Taylor Perry";"(989) 471-9430";"Ap #973-2992 Non Road";"Essex";"VT"
"Ahmed Lara";"(951) 404-6408";"Ap #551-3481 Lectus St.";"Norman";"OK"
"Ronan Heath";"(442) 229-3058";"Ap #937-5204 Donec Road";"Springfield";"MA"
"Cameran Elliott";"(589) 895-1602";"249-1281 Diam Street";"Broken Arrow";"OK"
"Gavin Torres";"(120) 539-0795";"4364 Mauris Ave";"Iowa City";"IA"
"Amethyst Koch";"(128) 854-5169";"1715 Nisl. Av.";"Savannah";"GA"
"Nyssa Nielsen";"(150) 989-7697";"5010 Nec Rd.";"Kansas City";"KS"
"Alana Koch";"(177) 852-7712";"Ap #761-1260 Pretium Street";"Independence";"MO"
"Brittany Nicholson";"(155) 790-6318";"Ap #821-5257 Tellus St.";"Madison";"WI"
"Kyla Wong";"(504) 671-3975";"7529 Nisl. Rd.";"Allentown";"PA"
"Tamara Doyle";"(202) 928-2180";"P.O. Box 958, 7871 Augue Ave";"Columbus";"GA"
"Barbara Cohen";"(747) 452-0818";"Ap #434-566 Et, Ave";"Savannah";"GA"
"Justine Haney";"(263) 159-2879";"3247 Libero Av.";"Montpelier";"VT"
"Camden Meyer";"(467) 818-3402";"1526 Ornare. Ave";"Sandy";"UT"
"Tiger Pollard";"(913) 221-0890";"P.O. Box 156, 7509 Lacinia. Avenue";"Jackson";"MS"
"Aphrodite Finley";"(177) 909-8318";"Ap #122-6801 Eget Street";"Allentown";"PA"
"Hayden Wong";"(215) 380-4781";"6855 Massa. St.";"Springdale";"AR"
"Scott Moran";"(349) 464-7291";"134-9498 Molestie Street";"Miami";"FL"
"Ahmed Lynn";"(787) 881-6221";"P.O. Box 387, 7178 Placerat Rd.";"Fort Smith";"AR"
"Ora Sutton";"(380) 894-0883";"530-1996 Enim. Avenue";"Fresno";"CA"
"Price Spears";"(456) 711-6573";"P.O. Box 591, 9195 Velit. St.";"San Francisco";"CA"
"Hu Green";"(443) 751-2069";"P.O. Box 637, 7322 Congue. Road";"Colchester";"VT"
"Duncan Burns";"(684) 266-4799";"P.O. Box 495, 1248 Sed St.";"Gulfport";"MS"
"Upton Patel";"(543) 642-2593";"P.O. Box 202, 5144 Sed, St.";"Rockville";"MD"
"Kevin Whitfield";"(883) 581-6182";"P.O. Box 356, 6407 Commodo St.";"Stamford";"CT"
"Gannon Cobb";"(837) 306-0536";"332-1270 Lorem, St.";"South Bend";"IN"
"Nehru Strong";"(843) 101-5399";"4670 Pellentesque Street";"Boise";"ID"
"Malik Parsons";"(632) 596-6714";"172-2283 Ut Avenue";"Sandy";"UT"
"Solomon Lyons";"(252) 102-9703";"2166 Cubilia St.";"Louisville";"KY"
"Preston Garner";"(356) 466-0225";"7916 Sit Street";"Savannah";"GA"
"Harlan Benjamin";"(689) 248-0842";"8941 Ut Avenue";"Huntsville";"AL"
"Nigel Frost";"(654) 476-1990";"P.O. Box 945, 4426 Dis St.";"San Antonio";"TX"
"Nichole Deleon";"(170) 804-9275";"Ap #844-9993 Urna, St.";"Sacramento";"CA"
"Donna Henry";"(348) 520-4139";"380-9504 Nec St.";"Stamford";"CT"
"Kirk Foley";"(674) 903-2146";"489-857 Massa Rd.";"Rochester";"MN"
"Lester Benjamin";"(335) 874-8258";"819 Sit Street";"Idaho Falls";"ID"
"Yetta Jefferson";"(555) 499-7737";"Ap #453-4902 Aliquam Street";"Fort Worth";"TX"
"Hollee Duke";"(495) 260-1832";"490-2430 Lorem Rd.";"Miami";"FL"
"Cameran Carey";"(647) 601-8075";"Ap #188-6105 Dignissim Ave";"Columbia";"MD"
"Bo Deleon";"(407) 977-7931";"P.O. Box 725, 4291 Semper Avenue";"Racine";"WI"
"Lysandra Welch";"(370) 924-0394";"Ap #516-2900 Nisi. St.";"Tuscaloosa";"AL"
"Adrian Goodman";"(507) 726-0771";"205 Sed Rd.";"Casper";"WY"
"Anne Frank";"(967) 636-0675";"Ap #861-2274 Nulla Rd.";"Gary";"IN"
"Kane Huff";"(162) 715-8637";"Ap #809-2466 Pede. Av.";"Glendale";"AZ"
"Ciara Steele";"(334) 877-0161";"P.O. Box 388, 8776 Adipiscing Road";"Vancouver";"WA"
"Demetrius Thornton";"(118) 508-5333";"Ap #534-6053 Magna St.";"Helena";"MT"
"Shaine Floyd";"(628) 554-1570";"Ap #753-8221 Cubilia Road";"Springfield";"MO"
"Cody Goodwin";"(944) 465-8579";"734-3111 Aliquam Road";"Salt Lake City";"UT"
"Macon Hayden";"(424) 575-3288";"Ap #451-4777 Pede Avenue";"Anchorage";"AK"
"Dana Gomez";"(389) 522-8846";"341-6478 Sed Road";"Harrisburg";"PA"
"Fitzgerald Gibson";"(189) 895-3222";"997 Ut Road";"Mesa";"AZ"
"Nash Peterson";"(837) 699-8480";"868-3176 Elit Rd.";"St. Petersburg";"FL"
"Karen Fox";"(224) 542-1061";"P.O. Box 843, 1711 Sollicitudin St.";"Essex";"VT"
"Sacha Farrell";"(239) 888-2206";"Ap #503-8148 Metus Avenue";"Juneau";"AK"
"Nayda Stephenson";"(677) 441-3588";"P.O. Box 122, 1990 Ut Ave";"Austin";"TX"
"Lev Morales";"(873) 468-8666";"P.O. Box 477, 8304 Nec Av.";"Oklahoma City";"OK"
"Felicia Kline";"(742) 516-5129";"4314 Nibh Av.";"Clarksville";"TN"
"Orlando Dunn";"(299) 980-4941";"P.O. Box 257, 8534 Arcu St.";"Tucson";"AZ"
"Hanna Summers";"(964) 484-7942";"P.O. Box 414, 9185 Pharetra St.";"Kearney";"NE"
"Ross Freeman";"(805) 560-3248";"Ap #242-4401 Duis Ave";"Columbus";"OH"
"Adria Sargent";"(811) 970-6053";"Ap #332-8486 Lacinia Av.";"Athens";"GA"
"Candace Sparks";"(106) 533-6033";"Ap #905-9991 Ut, Ave";"Juneau";"AK"
"Ezekiel Rose";"(350) 637-2770";"Ap #153-7918 Eget St.";"Oklahoma City";"OK"
"Wang Vang";"(373) 525-5117";"165-7993 Nisl. Rd.";"Essex";"VT"
"Uma Schmidt";"(988) 343-7465";"2121 Elementum St.";"Billings";"MT"
"Xenos Hickman";"(850) 520-6449";"P.O. Box 577, 5586 Tellus Street";"Frederick";"MD"
"Briar Weeks";"(996) 633-1690";"Ap #220-253 Non, St.";"Boston";"MA"
"Adele Dean";"(137) 368-5810";"3275 Libero. Rd.";"West Jordan";"UT"
"Hayley Morse";"(636) 179-8378";"P.O. Box 689, 4504 Molestie. Road";"Jackson";"MS"
"Damon Stephens";"(581) 163-2404";"8619 Quisque Av.";"Columbus";"OH"
"Willa Wooten";"(281) 560-0592";"6311 Pede Ave";"Newark";"DE"
"Stacey Spencer";"(147) 320-9873";"4874 Egestas Av.";"Madison";"WI"
"Hedy Olsen";"(604) 276-0753";"510-7869 Sed Avenue";"Hillsboro";"OR"
"Hayes Crosby";"(915) 352-5637";"Ap #552-5551 Nisi. Av.";"Memphis";"TN"
"Adara Gilmore";"(591) 942-9075";"Ap #617-8129 Eu St.";"Philadelphia";"PA"
"Katelyn Eaton";"(127) 318-9311";"Ap #606-4733 Enim St.";"Sacramento";"CA"
"Eric Campos";"(661) 558-4812";"Ap #717-567 Ac, St.";"Kapolei";"HI"
"April Pratt";"(139) 309-5601";"P.O. Box 898, 1358 Lobortis Rd.";"Lafayette";"LA"
"Emmanuel Mckee";"(649) 123-7377";"Ap #863-9870 Eu St.";"Springfield";"IL"
"Katelyn Sparks";"(373) 422-3071";"610-7505 Penatibus Ave";"Norman";"OK"
"Ignacia Trevino";"(764) 658-3133";"501 Feugiat. Av.";"Montgomery";"AL"
"Hoyt Baldwin";"(635) 543-1168";"Ap #294-2708 In Rd.";"Idaho Falls";"ID"
"Cameron Molina";"(678) 201-3792";"994-6616 Euismod Rd.";"Fort Collins";"CO"
"Inez Fitzgerald";"(609) 310-6079";"P.O. Box 721, 6313 Lectus Rd.";"Idaho Falls";"ID"
"Brenden Meyers";"(752) 265-3504";"872-8975 Suspendisse Avenue";"Davenport";"IA"
"Uta Hines";"(973) 295-7983";"P.O. Box 518, 972 Faucibus. Road";"Owensboro";"KY"
"Lawrence Greer";"(788) 782-4189";"191-9500 Mattis Av.";"Butte";"MT"
"Clarke Baxter";"(288) 485-7006";"176-5281 Et Avenue";"Aurora";"CO"
"Cadman Castillo";"(595) 668-6866";"Ap #985-2270 Ultricies Rd.";"Norfolk";"VA"
"Illiana Coleman";"(779) 461-8983";"590-2582 Cursus. Rd.";"Louisville";"KY"
"Haley Hensley";"(458) 426-1082";"Ap #155-1276 Morbi Street";"Cambridge";"MA"
"Gay Mcgee";"(667) 220-3243";"Ap #861-8405 Enim. Ave";"Allentown";"PA"
"Aspen Brennan";"(556) 507-0229";"682-6364 At, Avenue";"Denver";"CO"
"Iris Maldonado";"(219) 205-6726";"P.O. Box 721, 1940 Massa. Avenue";"Gresham";"OR"
"Tamara Maxwell";"(560) 527-3964";"8998 Bibendum. Ave";"Cambridge";"MA"
"Clio Cross";"(426) 559-7561";"171-4654 Luctus St.";"Erie";"PA"
"Dexter Clayton";"(176) 985-3377";"8975 Eros Avenue";"Fort Worth";"TX"
"Martina Cash";"(472) 799-0946";"5283 A Ave";"Lansing";"MI"
"Cyrus Cabrera";"(580) 717-6399";"850-2662 Justo Av.";"Carson City";"NV"
"Myles Webb";"(139) 875-6150";"5396 Ac St.";"Cedar Rapids";"IA"
"Daquan Mccoy";"(750) 765-6767";"Ap #258-7407 Ultrices, Road";"Baltimore";"MD"
"Yetta Baker";"(878) 406-0310";"P.O. Box 681, 4149 Duis Avenue";"Fort Smith";"AR"
"Kalia Flores";"(230) 237-8941";"P.O. Box 522, 2597 Sem Road";"Honolulu";"HI"
"Xaviera Salinas";"(372) 780-8331";"P.O. Box 125, 6332 Eu Ave";"Sterling Heights";"MI"
"Natalie Frazier";"(308) 175-8106";"Ap #937-4034 Aliquam St.";"Hilo";"HI"
"Amery Shepherd";"(237) 301-0967";"Ap #221-2091 Ante. Street";"Owensboro";"KY"
"Hilary Parrish";"(630) 289-2860";"Ap #120-5097 Augue Street";"Memphis";"TN"
"Jorden Lynch";"(832) 331-6123";"Ap #860-8943 Eu Road";"Burlington";"VT"
"Lesley Mooney";"(782) 609-9045";"4876 Facilisis Avenue";"Lincoln";"NE"
"Brianna Mccullough";"(832) 334-1405";"717-8463 Et, Av.";"Meridian";"ID"
"Nolan Vang";"(163) 874-3277";"4132 Tristique Road";"Kapolei";"HI"
"Justina Brennan";"(291) 389-6312";"383-8858 Libero Avenue";"Gulfport";"MS"
"Rajah Sanders";"(179) 384-5232";"Ap #875-5314 Metus. Avenue";"Jonesboro";"AR"
"Bruno Bailey";"(284) 868-8778";"Ap #260-3039 Proin Av.";"Tacoma";"WA"
"Hillary Knox";"(310) 207-4409";"P.O. Box 460, 717 Erat. Street";"Provo";"UT"
"Adam Buchanan";"(242) 245-1404";"594-6631 Nec Rd.";"Gresham";"OR"
"Camilla Marsh";"(220) 540-5455";"806-3622 Vivamus Av.";"Mobile";"AL"
"Lisandra Spence";"(257) 923-4427";"7689 Eleifend Av.";"Butte";"MT"
"Lillith Weiss";"(480) 264-5117";"P.O. Box 177, 3837 Enim, Avenue";"Jacksonville";"FL"
"Malik Barlow";"(243) 955-0563";"P.O. Box 133, 6466 Eu Street";"Rochester";"MN"
"Charles Mullen";"(400) 674-5178";"P.O. Box 277, 7752 Turpis. St.";"Essex";"VT"
"Kermit Pennington";"(213) 870-9124";"P.O. Box 191, 7880 Ultrices Ave";"Indianapolis";"IN"
"Dana Rodriquez";"(635) 435-1304";"P.O. Box 336, 2665 Ultricies Road";"Burlington";"VT"
"Curran Rush";"(545) 852-2996";"4351 Justo. Rd.";"Baton Rouge";"LA"
"Kyra Hurst";"(121) 436-6425";"Ap #195-4122 Et Avenue";"Wyoming";"WY"
"Knox Ware";"(530) 182-5143";"P.O. Box 882, 8100 Nascetur Rd.";"Portland";"OR"
"Ina Spencer";"(935) 675-2047";"410-362 At, Rd.";"St. Petersburg";"FL"
"Evelyn Mcmahon";"(749) 439-5545";"807-8474 Luctus Rd.";"Phoenix";"AZ"
"Mechelle Mcclure";"(962) 457-1322";"P.O. Box 261, 7014 Nam Avenue";"Harrisburg";"PA"
"Clayton Luna";"(635) 988-4193";"1370 Sed Rd.";"Madison";"WI"
"Wyatt Norris";"(125) 660-7848";"P.O. Box 992, 7134 Iaculis St.";"Cleveland";"OH"
"Willow Whitfield";"(800) 909-2922";"P.O. Box 211, 5554 Fringilla Rd.";"Lincoln";"NE"
"Skyler Vasquez";"(185) 422-8172";"P.O. Box 282, 5661 In Ave";"Topeka";"KS"
"Brody Townsend";"(770) 926-3597";"187-7903 Mus. St.";"Sterling Heights";"MI"
"Buffy Baird";"(918) 745-3026";"504-5015 Tortor Rd.";"Cambridge";"MA"
"Macaulay Hogan";"(607) 594-1124";"Ap #428-9631 Enim Rd.";"Hattiesburg";"MS"
"Amaya Hoover";"(650) 660-5690";"223 Egestas. St.";"Salt Lake City";"UT"
"Karina Gilliam";"(995) 614-1604";"Ap #765-4573 At Street";"Bowling Green";"KY"
"Basil Henson";"(801) 142-5358";"P.O. Box 539, 4757 Rutrum Street";"Fort Smith";"AR"
"Merrill Elliott";"(767) 708-5094";"P.O. Box 495, 1028 Pede. Rd.";"Akron";"OH"
"Britanney Bishop";"(561) 271-5103";"184-459 Lacinia Av.";"Pocatello";"ID"
"Kieran Flowers";"(582) 989-3308";"464-4466 Nec Street";"Cheyenne";"WY"
"Price Ferguson";"(987) 538-0899";"682-395 Risus. Rd.";"Fort Wayne";"IN"
"Brynne Camacho";"(832) 790-2134";"7819 Purus. Av.";"Lafayette";"LA"
"Dominique Holman";"(190) 478-1311";"Ap #951-8838 Amet St.";"Los Angeles";"CA"
"Macaulay Sharp";"(448) 403-2078";"155-6925 Pellentesque Rd.";"Olathe";"KS"
"Sage Mccarty";"(882) 464-2111";"Ap #513-4431 Erat, Road";"Sandy";"UT"
"Gail Walter";"(643) 897-3577";"484 Posuere, Ave";"Colchester";"VT"
"Althea Raymond";"(837) 974-0335";"7086 Orci. Av.";"Tacoma";"WA"
"Gareth Gamble";"(686) 348-6210";"4531 Eu St.";"Cheyenne";"WY"
"Eden Chapman";"(876) 818-6039";"6550 Aliquet Road";"Harrisburg";"PA"
"Ashely Irwin";"(731) 655-8095";"612-4836 Neque Av.";"Evansville";"IN"
"Wyatt Sexton";"(907) 915-7023";"5912 Nunc Road";"Bear";"DE"
